"","X","Location","n","lon","lat","city","state","country"
"1",1,"london, england, united kingdom",1230,-0.1277583,51.5073509,"london"," england"," united kingdom"
"2",2,"toronto, ontario, canada",1108,-79.3831843,43.653226,"toronto"," ontario"," canada"
"3",3,"melbourne, victoria, australia",894,144.9630576,-37.8136276,"melbourne"," victoria"," australia"
"4",4,"sydney, new south wales, australia",872,151.2092955,-33.8688197,"sydney"," new south wales"," australia"
"5",5,"portland, oregon, usa",827,-122.6764816,45.5230622,"portland"," oregon"," usa"
"6",6,"chicago, illinois, usa",796,-87.6297982,41.8781136,"chicago"," illinois"," usa"
"7",7,"seattle, washington, usa",765,-122.3320708,47.6062095,"seattle"," washington"," usa"
"8",8,"new york, new york, usa",706,-74.0059413,40.7127837,"new york"," new york"," usa"
"9",9,"vancouver, british columbia, canada",700,-123.1207375,49.2827291,"vancouver"," british columbia"," canada"
"10",10,"madrid, madrid, spain",675,-3.7037902,40.4167754,"madrid"," madrid"," spain"
"11",11,"san francisco, california, usa",672,-122.4194155,37.7749295,"san francisco"," california"," usa"
"12",12,"san diego, california, usa",665,-117.1610838,32.715738,"san diego"," california"," usa"
"13",13,"ottawa, ontario, canada",610,-75.6971931,45.4215296,"ottawa"," ontario"," canada"
"14",14,"houston, texas, usa",584,-95.3698028,29.7604267,"houston"," texas"," usa"
"15",15,"berlin, berlin, germany",563,13.404954,52.5200066,"berlin"," berlin"," germany"
"16",16,"los angeles, california, usa",529,-118.2436849,34.0522342,"los angeles"," california"," usa"
"17",17,"austin, texas, usa",511,-97.7430608,30.267153,"austin"," texas"," usa"
"18",18,"calgary, alberta, canada",498,-114.0708459,51.0486151,"calgary"," alberta"," canada"
"19",19,"milano, lombardia, italy",481,9.1859243,45.4654219,"milano"," lombardia"," italy"
"20",20,"hamburg, hamburg, germany",448,9.9936818,53.5510846,"hamburg"," hamburg"," germany"
"21",21,"barcelona, barcelona, spain",426,2.1734035,41.3850639,"barcelona"," barcelona"," spain"
"22",22,"victoria, british columbia, canada",407,-123.3656444,48.4284207,"victoria"," british columbia"," canada"
"23",23,"barcelona, catalunya, spain",395,2.1734035,41.3850639,"barcelona"," catalunya"," spain"
"24",24,"brisbane, queensland, australia",391,153.0251235,-27.4697707,"brisbane"," queensland"," australia"
"25",25,"st. louis, missouri, usa",381,-90.3371889,38.6105426,"st. louis"," missouri"," usa"
"26",26,"roma, lazio, italy",378,12.4963655,41.9027835,"roma"," lazio"," italy"
"27",27,"edmonton, alberta, canada",341,-113.4909267,53.544389,"edmonton"," alberta"," canada"
"28",28,"philadelphia, pennsylvania, usa",341,-75.1652215,39.9525839,"philadelphia"," pennsylvania"," usa"
"29",29,"montreal, quebec, canada",337,-73.567256,45.5016889,"montreal"," quebec"," canada"
"30",30,"adelaide, south australia, australia",329,138.6007456,-34.9284989,"adelaide"," south australia"," australia"
"31",31,"tucson, arizona, usa",329,-110.926479,32.2217429,"tucson"," arizona"," usa"
"32",32,"perth, western australia, australia",327,115.8604572,-31.9505269,"perth"," western australia"," australia"
"33",33,"brooklyn, new york, usa",304,-73.9441579,40.6781784,"brooklyn"," new york"," usa"
"34",34,"minneapolis, minnesota, usa",302,-93.2650108,44.977753,"minneapolis"," minnesota"," usa"
"35",35,"albuquerque, new mexico, usa",300,-106.6055534,35.0853336,"albuquerque"," new mexico"," usa"
"36",36,"atlanta, georgia, usa",284,-84.3879824,33.7489954,"atlanta"," georgia"," usa"
"37",37,"dallas, texas, usa",283,-96.7969879,32.7766642,"dallas"," texas"," usa"
"38",38,"london, n/a, united kingdom",264,-0.1277583,51.5073509,"london"," n/a"," united kingdom"
"39",39,"denver, colorado, usa",255,-104.990251,39.7392358,"denver"," colorado"," usa"
"40",40,"singapore, n/a, singapore",255,103.819836,1.352083,"singapore"," n/a"," singapore"
"41",41,"winnipeg, manitoba, canada",253,-97.1383744,49.895136,"winnipeg"," manitoba"," canada"
"42",42,"pittsburgh, pennsylvania, usa",251,-79.9958864,40.4406248,"pittsburgh"," pennsylvania"," usa"
"43",43,"san antonio, texas, usa",251,-98.4936282,29.4241219,"san antonio"," texas"," usa"
"44",44,"boston, massachusetts, usa",242,-71.0588801,42.3600825,"boston"," massachusetts"," usa"
"45",45,"sacramento, california, usa",242,-121.4943996,38.5815719,"sacramento"," california"," usa"
"46",46,"baltimore, maryland, usa",239,-76.6121893,39.2903848,"baltimore"," maryland"," usa"
"47",47,"rome, lazio, italy",239,12.4963655,41.9027835,"rome"," lazio"," italy"
"48",48,"phoenix, arizona, usa",233,-112.0740373,33.4483771,"phoenix"," arizona"," usa"
"49",49,"orlando, florida, usa",231,-81.3792365,28.5383355,"orlando"," florida"," usa"
"50",50,"columbus, ohio, usa",228,-82.9987942,39.9611755,"columbus"," ohio"," usa"
"51",51,"olympia, washington, usa",224,-122.9006951,47.0378741,"olympia"," washington"," usa"
"52",52,"san jose, california, usa",224,-121.8863286,37.3382082,"san jose"," california"," usa"
"53",53,"christchurch, canterbury, new zealand",222,172.6362254,-43.5320544,"christchurch"," canterbury"," new zealand"
"54",54,"manchester, england, united kingdom",220,-2.2426305,53.4807593,"manchester"," england"," united kingdom"
"55",55,"washington, dc, usa",218,-77.0368707,38.9071923,"washington"," dc"," usa"
"56",56,"baton rouge, louisiana, usa",214,-91.1403196,30.4582829,"baton rouge"," louisiana"," usa"
"57",57,"cincinnati, ohio, usa",214,-84.5120196,39.1031182,"cincinnati"," ohio"," usa"
"58",58,"halifax, nova scotia, canada",208,-63.5753196,44.6488625,"halifax"," nova scotia"," canada"
"59",59,"las vegas, nevada, usa",208,-115.1398296,36.1699412,"las vegas"," nevada"," usa"
"60",60,"edinburgh, scotland, united kingdom",204,-3.188267,55.953252,"edinburgh"," scotland"," united kingdom"
"61",61,"milwaukee, wisconsin, usa",204,-87.9064736,43.0389025,"milwaukee"," wisconsin"," usa"
"62",62,"canberra, australian capital territory, australia",199,149.1300092,-35.2809368,"canberra"," australian capital territory"," australia"
"63",63,"jacksonville, florida, usa",199,-81.655651,30.3321838,"jacksonville"," florida"," usa"
"64",64,"miami, florida, usa",195,-80.1917902,25.7616798,"miami"," florida"," usa"
"65",65,"oakland, california, usa",195,-122.2711137,37.8043637,"oakland"," california"," usa"
"66",66,"indianapolis, indiana, usa",191,-86.158068,39.768403,"indianapolis"," indiana"," usa"
"67",67,"richmond, virginia, usa",188,-77.4360481,37.5407246,"richmond"," virginia"," usa"
"68",68,"charlotte, north carolina, usa",187,-80.8431267,35.2270869,"charlotte"," north carolina"," usa"
"69",69,"london, ontario, canada",184,-81.243177,42.9869502,"london"," ontario"," canada"
"70",70,"raleigh, north carolina, usa",181,-78.6381787,35.7795897,"raleigh"," north carolina"," usa"
"71",71,"louisville, kentucky, usa",180,-85.7584557,38.2526647,"louisville"," kentucky"," usa"
"72",72,"glasgow, scotland, united kingdom",176,-4.251806,55.864237,"glasgow"," scotland"," united kingdom"
"73",73,"london, london, united kingdom",176,-0.1277583,51.5073509,"london"," london"," united kingdom"
"74",74,"ann arbor, michigan, usa",169,-83.7430378,42.2808256,"ann arbor"," michigan"," usa"
"75",75,"lisboa, lisboa, portugal",165,-0.1277583,51.5073509,"lisboa"," lisboa"," portugal"
"76",76,"münchen, bayern, germany",162,-0.1277583,51.5073509,"münchen"," bayern"," germany"
"77",77,"kansas city, missouri, usa",159,-94.5785667,39.0997265,"kansas city"," missouri"," usa"
"78",78,"torino, piemonte, italy",158,7.6868565,45.070312,"torino"," piemonte"," italy"
"79",79,"new orleans, louisiana, usa",156,-90.0715323,29.9510658,"new orleans"," louisiana"," usa"
"80",80,"omaha, nebraska, usa",156,-95.9979883,41.2523634,"omaha"," nebraska"," usa"
"81",81,"valencia, valencia, spain",156,-0.3762881,39.4699075,"valencia"," valencia"," spain"
"82",82,"tampa, florida, usa",155,-82.4571776,27.950575,"tampa"," florida"," usa"
"83",83,"nashville, tennessee, usa",153,-86.7816016,36.1626638,"nashville"," tennessee"," usa"
"84",84,"köln, nordrhein-westfalen, germany",151,-0.1277583,51.5073509,"köln"," nordrhein-westfalen"," germany"
"85",85,"são paulo, são paulo, brazil",144,-0.1277583,51.5073509,"são paulo"," são paulo"," brazil"
"86",86,"virginia beach, virginia, usa",144,-75.977985,36.8529263,"virginia beach"," virginia"," usa"
"87",87,"berkeley, california, usa",142,-122.272747,37.8715926,"berkeley"," california"," usa"
"88",88,"rochester, new york, usa",142,-77.6109219,43.16103,"rochester"," new york"," usa"
"89",89,"bologna, emilia romagna, italy",141,11.3426163,44.494887,"bologna"," emilia romagna"," italy"
"90",90,"hamilton, ontario, canada",141,-79.8711024,43.2557206,"hamilton"," ontario"," canada"
"91",91,"lisboa, n/a, portugal",139,-9.1393366,38.7222524,"lisboa"," n/a"," portugal"
"92",92,"paris, n/a, france",138,2.3522219,48.856614,"paris"," n/a"," france"
"93",93,"arlington, virginia, usa",135,-77.1067698,38.8799697,"arlington"," virginia"," usa"
"94",94,"eugene, oregon, usa",135,-123.0867536,44.0520691,"eugene"," oregon"," usa"
"95",95,"mississauga, ontario, canada",133,-79.6441198,43.5890452,"mississauga"," ontario"," canada"
"96",96,"colorado springs, colorado, usa",131,-104.8213634,38.8338816,"colorado springs"," colorado"," usa"
"97",97,"stuttgart, baden-wuerttemberg, germany",130,9.1829321,48.7758459,"stuttgart"," baden-wuerttemberg"," germany"
"98",98,"auckland, n/a, new zealand",128,174.7633315,-36.8484597,"auckland"," n/a"," new zealand"
"99",99,"hannover, niedersachsen, germany",128,9.7320104,52.3758916,"hannover"," niedersachsen"," germany"
"100",100,"vancouver, washington, usa",128,-122.6716063,45.6318397,"vancouver"," washington"," usa"
"101",101,"burnaby, british columbia, canada",127,-122.9805104,49.2488091,"burnaby"," british columbia"," canada"
"102",102,"fort worth, texas, usa",127,-97.3307658,32.7554883,"fort worth"," texas"," usa"
"103",103,"firenze, toscana, italy",126,11.2558136,43.7695604,"firenze"," toscana"," italy"
"104",104,"paris, ile de france, france",125,2.3522219,48.856614,"paris"," ile de france"," france"
"105",105,"alexandria, virginia, usa",124,-77.0469214,38.8048355,"alexandria"," virginia"," usa"
"106",106,"cardiff, wales, united kingdom",124,-3.17909,51.481581,"cardiff"," wales"," united kingdom"
"107",107,"kingston, ontario, canada",124,-76.4859544,44.2311717,"kingston"," ontario"," canada"
"108",108,"singapore, singapore, singapore",122,103.819836,1.352083,"singapore"," singapore"," singapore"
"109",109,"cambridge, massachusetts, usa",121,-71.1097335,42.3736158,"cambridge"," massachusetts"," usa"
"110",110,"munich, bayern, germany",121,11.5819806,48.1351253,"munich"," bayern"," germany"
"111",111,"anchorage, alaska, usa",120,-149.9002778,61.2180556,"anchorage"," alaska"," usa"
"112",112,"bonn, nordrhein-westfalen, germany",120,7.0982068,50.73743,"bonn"," nordrhein-westfalen"," germany"
"113",113,"charleston, south carolina, usa",120,-79.9310512,32.7764749,"charleston"," south carolina"," usa"
"114",114,"cologne, nordrhein-westfalen, germany",120,6.9602786,50.937531,"cologne"," nordrhein-westfalen"," germany"
"115",115,"columbia, south carolina, usa",120,-81.0348144,34.0007104,"columbia"," south carolina"," usa"
"116",116,"frankfurt, hessen, germany",120,8.6821267,50.1109221,"frankfurt"," hessen"," germany"
"117",117,"saskatoon, saskatchewan, canada",120,-106.6700458,52.1332144,"saskatoon"," saskatchewan"," canada"
"118",118,"memphis, tennessee, usa",119,-90.0489801,35.1495343,"memphis"," tennessee"," usa"
"119",119,"dortmund, nordrhein-westfalen, germany",118,7.4652981,51.5135872,"dortmund"," nordrhein-westfalen"," germany"
"120",120,"wichita, kansas, usa",118,-97.330053,37.6871761,"wichita"," kansas"," usa"
"121",121,"grand rapids, michigan, usa",117,-85.6680863,42.9633599,"grand rapids"," michigan"," usa"
"122",122,"tulsa, oklahoma, usa",117,-95.992775,36.1539816,"tulsa"," oklahoma"," usa"
"123",123,"st. paul, minnesota, usa",116,-93.0899578,44.9537029,"st. paul"," minnesota"," usa"
"124",124,"surrey, british columbia, canada",116,-122.801094,49.1044302,"surrey"," british columbia"," canada"
"125",125,"birmingham, england, united kingdom",114,-1.890401,52.486243,"birmingham"," england"," united kingdom"
"126",126,"bristol, england, united kingdom",113,-2.58791,51.454513,"bristol"," england"," united kingdom"
"127",127,"cleveland, ohio, usa",112,-81.6943605,41.49932,"cleveland"," ohio"," usa"
"128",128,"fredericton, new brunswick, canada",112,-66.6431151,45.9635895,"fredericton"," new brunswick"," canada"
"129",129,"salt lake city, utah, usa",110,-111.8910474,40.7607793,"salt lake city"," utah"," usa"
"130",130,"milan, lombardia, italy",106,9.1859243,45.4654219,"milan"," lombardia"," italy"
"131",131,"birmingham, alabama, usa",104,-86.80249,33.5206608,"birmingham"," alabama"," usa"
"132",132,"lexington, kentucky, usa",104,-84.5037164,38.0405837,"lexington"," kentucky"," usa"
"133",133,"madison, wisconsin, usa",104,-89.4012302,43.0730517,"madison"," wisconsin"," usa"
"134",134,"madrid, n/a, spain",103,-3.7037902,40.4167754,"madrid"," n/a"," spain"
"135",135,"santa rosa, california, usa",103,-122.7140548,38.440429,"santa rosa"," california"," usa"
"136",136,"aachen, nordrhein-westfalen, germany",102,6.0838868,50.7753455,"aachen"," nordrhein-westfalen"," germany"
"137",137,"bremen, bremen, germany",102,8.8016937,53.0792962,"bremen"," bremen"," germany"
"138",138,"buffalo, new york, usa",102,-78.8783689,42.8864468,"buffalo"," new york"," usa"
"139",139,"genova, liguria, italy",102,8.946256,44.4056499,"genova"," liguria"," italy"
"140",140,"mesa, arizona, usa",102,-111.8314724,33.4151843,"mesa"," arizona"," usa"
"141",141,"silver spring, maryland, usa",102,-77.026088,38.9906657,"silver spring"," maryland"," usa"
"142",142,"somerville, massachusetts, usa",102,-71.0994968,42.3875968,"somerville"," massachusetts"," usa"
"143",143,"barcelona, n/a, spain",101,2.1734035,41.3850639,"barcelona"," n/a"," spain"
"144",144,"brighton, england, united kingdom",101,-0.137163,50.82253,"brighton"," england"," united kingdom"
"145",145,"barcelona, cataluña, spain",100,-0.1277583,51.5073509,"barcelona"," cataluña"," spain"
"146",146,"durham, north carolina, usa",100,-78.898619,35.9940329,"durham"," north carolina"," usa"
"147",147,"bellingham, washington, usa",99,-122.4786854,48.7519112,"bellingham"," washington"," usa"
"148",148,"fresno, california, usa",99,-119.7725868,36.7468422,"fresno"," california"," usa"
"149",149,"honolulu, hawaii, usa",99,-157.8583333,21.3069444,"honolulu"," hawaii"," usa"
"150",150,"porto, porto, portugal",98,-8.6291053,41.1579438,"porto"," porto"," portugal"
"151",151,"shanghai, shanghai, china",98,121.473701,31.230416,"shanghai"," shanghai"," china"
"152",152,"norfolk, virginia, usa",97,-76.2858726,36.8507689,"norfolk"," virginia"," usa"
"153",153,"norwich, england, united kingdom",97,1.297355,52.6308859,"norwich"," england"," united kingdom"
"154",154,"nottingham, england, united kingdom",97,-1.1581086,52.9547832,"nottingham"," england"," united kingdom"
"155",155,"springfield, missouri, usa",97,-93.2922989,37.2089572,"springfield"," missouri"," usa"
"156",156,"tehran, tehran, iran",97,51.3889736,35.6891975,"tehran"," tehran"," iran"
"157",157,"beaverton, oregon, usa",96,-122.8037102,45.487062,"beaverton"," oregon"," usa"
"158",158,"columbia, missouri, usa",96,-92.3340724,38.9517053,"columbia"," missouri"," usa"
"159",159,"long beach, california, usa",96,-118.1937395,33.7700504,"long beach"," california"," usa"
"160",160,"paris, paris, france",96,2.3522219,48.856614,"paris"," paris"," france"
"161",161,"santa cruz, california, usa",96,-122.0307963,36.9741171,"santa cruz"," california"," usa"
"162",162,"tallahassee, florida, usa",96,-84.2807329,30.4382559,"tallahassee"," florida"," usa"
"163",163,"cambridge, england, united kingdom",94,0.121817,52.205337,"cambridge"," england"," united kingdom"
"164",164,"vienna, vienna, austria",94,16.3738189,48.2081743,"vienna"," vienna"," austria"
"165",165,"mainz, rheinland-pfalz, germany",93,8.2472526,49.9928617,"mainz"," rheinland-pfalz"," germany"
"166",166,"regina, saskatchewan, canada",93,-104.6188944,50.4452112,"regina"," saskatchewan"," canada"
"167",167,"boise, idaho, usa",92,-116.2146068,43.6187102,"boise"," idaho"," usa"
"168",168,"beijing, beijing, china",91,116.407395,39.904211,"beijing"," beijing"," china"
"169",169,"boulder, colorado, usa",91,-105.2705456,40.0149856,"boulder"," colorado"," usa"
"170",170,"knoxville, tennessee, usa",91,-83.9207392,35.9606384,"knoxville"," tennessee"," usa"
"171",171,"wien, wien, austria",91,16.3738189,48.2081743,"wien"," wien"," austria"
"172",172,"cary, north carolina, usa",89,-78.7811169,35.79154,"cary"," north carolina"," usa"
"173",173,"christchurch, n/a, new zealand",87,172.6362254,-43.5320544,"christchurch"," n/a"," new zealand"
"174",174,"lisbon, n/a, portugal",87,-9.1393366,38.7222524,"lisbon"," n/a"," portugal"
"175",175,"lincoln, nebraska, usa",86,-96.6851982,40.8257625,"lincoln"," nebraska"," usa"
"176",176,"spokane, washington, usa",86,-117.4260466,47.6587802,"spokane"," washington"," usa"
"177",177,"stockholm, n/a, sweden",86,18.0685808,59.3293235,"stockholm"," n/a"," sweden"
"178",178,"nürnberg, bayern, germany",85,-0.1277583,51.5073509,"nürnberg"," bayern"," germany"
"179",179,"oklahoma city, oklahoma, usa",85,-97.5164276,35.4675602,"oklahoma city"," oklahoma"," usa"
"180",180,"tacoma, washington, usa",85,-122.4442906,47.2528768,"tacoma"," washington"," usa"
"181",181,"oxford, england, united kingdom",84,-1.2577263,51.7520209,"oxford"," england"," united kingdom"
"182",182,"rio de janeiro, rio de janeiro, brazil",84,-43.1728965,-22.9068467,"rio de janeiro"," rio de janeiro"," brazil"
"183",183,"lancaster, pennsylvania, usa",83,-76.3055144,40.0378755,"lancaster"," pennsylvania"," usa"
"184",184,"charlottesville, virginia, usa",82,-78.4766781,38.0293059,"charlottesville"," virginia"," usa"
"185",185,"north vancouver, british columbia, canada",82,-123.0732801,49.3269904,"north vancouver"," british columbia"," canada"
"186",186,"marietta, georgia, usa",81,-84.5499327,33.952602,"marietta"," georgia"," usa"
"187",187,"auckland, auckland, new zealand",80,174.7633315,-36.8484597,"auckland"," auckland"," new zealand"
"188",188,"düsseldorf, nordrhein-westfalen, germany",80,-0.1277583,51.5073509,"düsseldorf"," nordrhein-westfalen"," germany"
"189",189,"dunedin, otago, new zealand",80,170.5027976,-45.8787605,"dunedin"," otago"," new zealand"
"190",190,"huntington beach, california, usa",80,-117.9992265,33.660297,"huntington beach"," california"," usa"
"191",191,"detroit, michigan, usa",78,-83.0457538,42.331427,"detroit"," michigan"," usa"
"192",192,"roanoke, virginia, usa",78,-79.9414266,37.2709704,"roanoke"," virginia"," usa"
"193",193,"scottsdale, arizona, usa",78,-111.9260519,33.4941704,"scottsdale"," arizona"," usa"
"194",194,"leipzig, sachsen, germany",77,12.3730747,51.3396955,"leipzig"," sachsen"," germany"
"195",195,"portland, maine, usa",77,-70.2553259,43.661471,"portland"," maine"," usa"
"196",196,"sevilla, sevilla, spain",77,-5.9844589,37.3890924,"sevilla"," sevilla"," spain"
"197",197,"utrecht, utrecht, netherlands",77,5.1214201,52.0907374,"utrecht"," utrecht"," netherlands"
"198",198,"padova, veneto, italy",76,11.8767611,45.4064349,"padova"," veneto"," italy"
"199",199,"buenos aires, buenos aires, argentina",75,-58.3815591,-34.6036844,"buenos aires"," buenos aires"," argentina"
"200",200,"chapel hill, north carolina, usa",75,-79.0558445,35.9131996,"chapel hill"," north carolina"," usa"
"201",201,"kitchener, ontario, canada",75,-80.4831917,43.450301,"kitchener"," ontario"," canada"
"202",202,"asheville, north carolina, usa",74,-82.5514869,35.5950581,"asheville"," north carolina"," usa"
"203",203,"greensboro, north carolina, usa",74,-79.7919754,36.0726354,"greensboro"," north carolina"," usa"
"204",204,"karlsruhe, baden-wuerttemberg, germany",74,8.4036527,49.0068901,"karlsruhe"," baden-wuerttemberg"," germany"
"205",205,"bakersfield, california, usa",73,-119.0187125,35.3732921,"bakersfield"," california"," usa"
"206",206,"huntsville, alabama, usa",73,-86.5861037,34.7303688,"huntsville"," alabama"," usa"
"207",207,"riverside, california, usa",73,-117.3961564,33.9533487,"riverside"," california"," usa"
"208",208,"santa barbara, california, usa",73,-119.6981901,34.4208305,"santa barbara"," california"," usa"
"209",209,"waterloo, ontario, canada",73,-80.5204096,43.4642578,"waterloo"," ontario"," canada"
"210",210,"copenhagen, n/a, denmark",72,12.5683371,55.6760968,"copenhagen"," n/a"," denmark"
"211",211,"gainesville, florida, usa",72,-82.3248262,29.6516344,"gainesville"," florida"," usa"
"212",212,"sarasota, florida, usa",72,-82.5306527,27.3364347,"sarasota"," florida"," usa"
"213",213,"arlington, texas, usa",71,-97.1080656,32.735687,"arlington"," texas"," usa"
"214",214,"dublin, n/a, ireland",71,-6.2603097,53.3498053,"dublin"," n/a"," ireland"
"215",215,"salem, oregon, usa",71,-123.0350963,44.9428975,"salem"," oregon"," usa"
"216",216,"freiburg, baden-wuerttemberg, germany",70,7.8421043,47.9990077,"freiburg"," baden-wuerttemberg"," germany"
"217",217,"dresden, sachsen, germany",69,13.7372621,51.0504088,"dresden"," sachsen"," germany"
"218",218,"istanbul, n/a, turkey",69,28.9783589,41.0082376,"istanbul"," n/a"," turkey"
"219",219,"santa monica, california, usa",69,-118.4911912,34.0194543,"santa monica"," california"," usa"
"220",220,"bloomington, indiana, usa",68,-86.5263857,39.165325,"bloomington"," indiana"," usa"
"221",221,"bronx, new york, usa",68,-73.8654295,40.8370495,"bronx"," new york"," usa"
"222",222,"leicester, england, united kingdom",68,-1.1397592,52.6368778,"leicester"," england"," united kingdom"
"223",223,"münster, nordrhein-westfalen, germany",68,-0.1277583,51.5073509,"münster"," nordrhein-westfalen"," germany"
"224",224,"napa, california, usa",68,-122.286865,38.2975381,"napa"," california"," usa"
"225",225,"aberdeen, scotland, united kingdom",67,-2.094278,57.149717,"aberdeen"," scotland"," united kingdom"
"226",226,"akron, ohio, usa",67,-81.5190053,41.0814447,"akron"," ohio"," usa"
"227",227,"corvallis, oregon, usa",66,-123.2620435,44.5645659,"corvallis"," oregon"," usa"
"228",228,"essen, nordrhein-westfalen, germany",66,7.0115552,51.4556432,"essen"," nordrhein-westfalen"," germany"
"229",229,"bochum, nordrhein-westfalen, germany",65,7.2162363,51.4818445,"bochum"," nordrhein-westfalen"," germany"
"230",230,"porto, n/a, portugal",65,-8.6291053,41.1579438,"porto"," n/a"," portugal"
"231",231,"leeds, england, united kingdom",64,-1.5490774,53.8007554,"leeds"," england"," united kingdom"
"232",232,"reno, nevada, usa",64,-119.8138027,39.5296329,"reno"," nevada"," usa"
"233",233,"saint louis, missouri, usa",64,-90.3371889,38.6105426,"saint louis"," missouri"," usa"
"234",234,"wellington, n/a, new zealand",64,174.776236,-41.2864603,"wellington"," n/a"," new zealand"
"235",235,"windsor, ontario, canada",64,-83.0363633,42.3149367,"windsor"," ontario"," canada"
"236",236,"dartmouth, nova scotia, canada",63,-63.5677427,44.6652059,"dartmouth"," nova scotia"," canada"
"237",237,"des moines, iowa, usa",63,-93.6091064,41.6005448,"des moines"," iowa"," usa"
"238",238,"lakeland, florida, usa",63,-81.9498042,28.0394654,"lakeland"," florida"," usa"
"239",239,"mobile, alabama, usa",63,-88.1803557,30.6964406,"mobile"," alabama"," usa"
"240",240,"modesto, california, usa",63,-120.9968782,37.6390972,"modesto"," california"," usa"
"241",241,"prince george, british columbia, canada",63,-122.7496693,53.9170641,"prince george"," british columbia"," canada"
"242",242,"tempe, arizona, usa",63,-111.9400054,33.4255104,"tempe"," arizona"," usa"
"243",243,"everett, washington, usa",62,-122.2020794,47.9789848,"everett"," washington"," usa"
"244",244,"liverpool, england, united kingdom",62,-2.9915726,53.4083714,"liverpool"," england"," united kingdom"
"245",245,"pasadena, california, usa",62,-118.1445155,34.1477849,"pasadena"," california"," usa"
"246",246,"zaragoza, zaragoza, spain",62,-0.8890853,41.6488226,"zaragoza"," zaragoza"," spain"
"247",247,"bangalore, karnataka, india",61,77.5945627,12.9715987,"bangalore"," karnataka"," india"
"248",248,"chattanooga, tennessee, usa",61,-85.3096801,35.0456297,"chattanooga"," tennessee"," usa"
"249",249,"nanaimo, british columbia, canada",61,-123.9400647,49.1658836,"nanaimo"," british columbia"," canada"
"250",250,"napoli, campania, italy",61,14.2681244,40.8517746,"napoli"," campania"," italy"
"251",251,"syracuse, new york, usa",61,-76.1474244,43.0481221,"syracuse"," new york"," usa"
"252",252,"amsterdam, n/a, netherlands",60,4.8951679,52.3702157,"amsterdam"," n/a"," netherlands"
"253",253,"amsterdam, noord holland, netherlands",60,4.8951679,52.3702157,"amsterdam"," noord holland"," netherlands"
"254",254,"frankfurt am main, hessen, germany",60,8.6821267,50.1109221,"frankfurt am main"," hessen"," germany"
"255",255,"hillsboro, oregon, usa",60,-122.989827,45.5228939,"hillsboro"," oregon"," usa"
"256",256,"iowa city, iowa, usa",60,-91.5301683,41.6611277,"iowa city"," iowa"," usa"
"257",257,"barcelona, catalonia, spain",59,2.1734035,41.3850639,"barcelona"," catalonia"," spain"
"258",258,"chesapeake, virginia, usa",59,-76.2874927,36.7682088,"chesapeake"," virginia"," usa"
"259",259,"fairbanks, alaska, usa",59,-147.7163889,64.8377778,"fairbanks"," alaska"," usa"
"260",260,"fairfax, virginia, usa",59,-77.3063733,38.8462236,"fairfax"," virginia"," usa"
"261",261,"pensacola, florida, usa",59,-87.2169149,30.421309,"pensacola"," florida"," usa"
"262",262,"amsterdam, noord-holland, netherlands",58,4.8951679,52.3702157,"amsterdam"," noord-holland"," netherlands"
"263",263,"dayton, ohio, usa",58,-84.1916069,39.7589478,"dayton"," ohio"," usa"
"264",264,"heidelberg, baden-wuerttemberg, germany",58,8.6724335,49.3987524,"heidelberg"," baden-wuerttemberg"," germany"
"265",265,"mannheim, baden-wuerttemberg, germany",58,8.4660395,49.4874592,"mannheim"," baden-wuerttemberg"," germany"
"266",266,"plano, texas, usa",58,-96.6988856,33.0198431,"plano"," texas"," usa"
"267",267,"st. petersburg, florida, usa",58,-82.6267345,27.7518284,"st. petersburg"," florida"," usa"
"268",268,"tübingen, baden-wuerttemberg, germany",58,-0.1277583,51.5073509,"tübingen"," baden-wuerttemberg"," germany"
"269",269,"athens, georgia, usa",57,-83.357567,33.9519347,"athens"," georgia"," usa"
"270",270,"burlington, ontario, canada",57,-79.7990319,43.3255196,"burlington"," ontario"," canada"
"271",271,"champaign, illinois, usa",57,-88.2433829,40.1164204,"champaign"," illinois"," usa"
"272",272,"dublin, dublin, ireland",57,-6.2603097,53.3498053,"dublin"," dublin"," ireland"
"273",273,"toledo, ohio, usa",57,-83.555212,41.6639383,"toledo"," ohio"," usa"
"274",274,"duisburg, nordrhein-westfalen, germany",56,6.7623293,51.4344079,"duisburg"," nordrhein-westfalen"," germany"
"275",275,"helsinki, uusimaa, finland",56,24.938379,60.1698557,"helsinki"," uusimaa"," finland"
"276",276,"ithaca, new york, usa",56,-76.5018807,42.4439614,"ithaca"," new york"," usa"
"277",277,"lisbon, lisbon, portugal",56,-9.1393366,38.7222524,"lisbon"," lisbon"," portugal"
"278",278,"sheffield, england, united kingdom",56,-1.470085,53.381129,"sheffield"," england"," united kingdom"
"279",279,"alameda, california, usa",55,-122.2416355,37.7652065,"alameda"," california"," usa"
"280",280,"aurora, colorado, usa",55,-104.8319195,39.7294319,"aurora"," colorado"," usa"
"281",281,"bellevue, washington, usa",55,-122.2015159,47.6101497,"bellevue"," washington"," usa"
"282",282,"duluth, minnesota, usa",55,-92.1004852,46.7866719,"duluth"," minnesota"," usa"
"283",283,"st. john`s, newfoundland, canada",55,-52.7132976,47.5589987,"st. john`s"," newfoundland"," canada"
"284",284,"tampere, pirkanmaa, finland",55,23.7609535,61.4977524,"tampere"," pirkanmaa"," finland"
"285",285,"carlsbad, california, usa",54,-117.3505939,33.1580933,"carlsbad"," california"," usa"
"286",286,"chandler, arizona, usa",54,-111.8412502,33.3061605,"chandler"," arizona"," usa"
"287",287,"decatur, georgia, usa",54,-84.2963123,33.7748275,"decatur"," georgia"," usa"
"288",288,"mountain view, california, usa",54,-122.0838511,37.3860517,"mountain view"," california"," usa"
"289",289,"oceanside, california, usa",54,-117.3794834,33.1958696,"oceanside"," california"," usa"
"290",290,"springfield, illinois, usa",54,-89.6501481,39.7817213,"springfield"," illinois"," usa"
"291",291,"braunschweig, niedersachsen, germany",53,10.5267696,52.2688736,"braunschweig"," niedersachsen"," germany"
"292",292,"delta, british columbia, canada",53,-123.0264759,49.0952155,"delta"," british columbia"," canada"
"293",293,"el paso, texas, usa",53,-106.4850217,31.7618778,"el paso"," texas"," usa"
"294",294,"greenville, south carolina, usa",53,-82.3940104,34.8526176,"greenville"," south carolina"," usa"
"295",295,"lansing, michigan, usa",53,-84.5555347,42.732535,"lansing"," michigan"," usa"
"296",296,"little rock, arkansas, usa",53,-92.2895948,34.7464809,"little rock"," arkansas"," usa"
"297",297,"st louis, missouri, usa",53,-90.3371889,38.6105426,"st louis"," missouri"," usa"
"298",298,"st. charles, missouri, usa",53,-90.4974359,38.7881062,"st. charles"," missouri"," usa"
"299",299,"trieste, friuli venezia giulia, italy",53,13.7768182,45.6495264,"trieste"," friuli venezia giulia"," italy"
"300",300,"alicante, alicante, spain",52,-0.4906855,38.3459963,"alicante"," alicante"," spain"
"301",301,"guelph, ontario, canada",52,-80.2481666,43.5448048,"guelph"," ontario"," canada"
"302",302,"providence, rhode island, usa",52,-71.4128343,41.8239891,"providence"," rhode island"," usa"
"303",303,"savannah, georgia, usa",52,-81.0998342,32.0835407,"savannah"," georgia"," usa"
"304",304,"sunnyvale, california, usa",52,-122.0363496,37.36883,"sunnyvale"," california"," usa"
"305",305,"york, england, united kingdom",52,-1.0872979,53.9599651,"york"," england"," united kingdom"
"306",306,"boca raton, florida, usa",51,-80.1289321,26.3683064,"boca raton"," florida"," usa"
"307",307,"chula vista, california, usa",51,-117.0841955,32.6400541,"chula vista"," california"," usa"
"308",308,"irving, texas, usa",51,-96.9488945,32.8140177,"irving"," texas"," usa"
"309",309,"lacey, washington, usa",51,-122.8231915,47.0342629,"lacey"," washington"," usa"
"310",310,"littleton, colorado, usa",51,-105.0166498,39.613321,"littleton"," colorado"," usa"
"311",311,"palo alto, california, usa",51,-122.1430195,37.4418834,"palo alto"," california"," usa"
"312",312,"reading, england, united kingdom",51,-0.9781303,51.4542645,"reading"," england"," united kingdom"
"313",313,"thunder bay, ontario, canada",51,-89.2476823,48.3808951,"thunder bay"," ontario"," canada"
"314",314,"darmstadt, hessen, germany",50,8.6511929,49.8728253,"darmstadt"," hessen"," germany"
"315",315,"gold coast, queensland, australia",50,153.4,-28.016667,"gold coast"," queensland"," australia"
"316",316,"lawrence, kansas, usa",50,-95.2352501,38.9716689,"lawrence"," kansas"," usa"
"317",317,"naperville, illinois, usa",50,-88.1535352,41.7508391,"naperville"," illinois"," usa"
"318",318,"nashua, new hampshire, usa",50,-71.467566,42.7653662,"nashua"," new hampshire"," usa"
"319",319,"torrance, california, usa",50,-118.3406288,33.8358492,"torrance"," california"," usa"
"320",320,"wilmington, delaware, usa",50,-75.5397878,39.7390721,"wilmington"," delaware"," usa"
"321",321,"evanston, illinois, usa",49,-87.6876969,42.0450722,"evanston"," illinois"," usa"
"322",322,"fayetteville, north carolina, usa",49,-78.8783585,35.0526641,"fayetteville"," north carolina"," usa"
"323",323,"fort wayne, indiana, usa",49,-85.1393513,41.079273,"fort wayne"," indiana"," usa"
"324",324,"kamloops, british columbia, canada",49,-120.3272674,50.674522,"kamloops"," british columbia"," canada"
"325",325,"kuala lumpur, n/a, malaysia",49,101.686855,3.139003,"kuala lumpur"," n/a"," malaysia"
"326",326,"red deer, alberta, canada",49,-113.8112386,52.2681118,"red deer"," alberta"," canada"
"327",327,"staten island, new york, usa",49,-74.1502007,40.5795317,"staten island"," new york"," usa"
"328",328,"stockton, california, usa",49,-121.2907796,37.9577016,"stockton"," california"," usa"
"329",329,"wiesbaden, hessen, germany",49,8.2397608,50.0782184,"wiesbaden"," hessen"," germany"
"330",330,"bend, oregon, usa",48,-121.3153096,44.0581728,"bend"," oregon"," usa"
"331",331,"burbank, california, usa",48,-118.3089661,34.1808392,"burbank"," california"," usa"
"332",332,"hobart, tasmania, australia",48,147.3271949,-42.8821377,"hobart"," tasmania"," australia"
"333",333,"mumbai, maharashtra, india",48,72.8776559,19.0759837,"mumbai"," maharashtra"," india"
"334",334,"oakville, ontario, canada",48,-79.6876659,43.467517,"oakville"," ontario"," canada"
"335",335,"redding, california, usa",48,-122.3916754,40.5865396,"redding"," california"," usa"
"336",336,"southampton, england, united kingdom",48,-1.4043509,50.9097004,"southampton"," england"," united kingdom"
"337",337,"york, pennsylvania, usa",48,-76.727745,39.9625984,"york"," pennsylvania"," usa"
"338",338,"cedar rapids, iowa, usa",47,-91.6656232,41.9778795,"cedar rapids"," iowa"," usa"
"339",339,"el cajon, california, usa",47,-116.9625269,32.7947731,"el cajon"," california"," usa"
"340",340,"fremont, california, usa",47,-121.9885719,37.5482697,"fremont"," california"," usa"
"341",341,"henderson, nevada, usa",47,-114.9817213,36.0395247,"henderson"," nevada"," usa"
"342",342,"kiel, schleswig-holstein, germany",47,10.1227652,54.3232927,"kiel"," schleswig-holstein"," germany"
"343",343,"walnut creek, california, usa",47,-122.0651819,37.9100783,"walnut creek"," california"," usa"
"344",344,"winston-salem, north carolina, usa",47,-80.244216,36.0998596,"winston-salem"," north carolina"," usa"
"345",345,"clearwater, florida, usa",46,-82.8001026,27.9658533,"clearwater"," florida"," usa"
"346",346,"gijon, asturias, spain",46,-5.6611195,43.5322015,"gijon"," asturias"," spain"
"347",347,"helsinki, n/a, finland",46,24.938379,60.1698557,"helsinki"," n/a"," finland"
"348",348,"kalamazoo, michigan, usa",46,-85.5872286,42.2917069,"kalamazoo"," michigan"," usa"
"349",349,"lawrenceville, georgia, usa",46,-83.9879625,33.9562149,"lawrenceville"," georgia"," usa"
"350",350,"santander, cantabria, spain",46,-3.8099803,43.4623057,"santander"," cantabria"," spain"
"351",351,"chico, california, usa",45,-121.8374777,39.7284944,"chico"," california"," usa"
"352",352,"livermore, california, usa",45,-121.7680088,37.6818745,"livermore"," california"," usa"
"353",353,"manchester, new hampshire, usa",45,-71.4547891,42.9956397,"manchester"," new hampshire"," usa"
"354",354,"newark, delaware, usa",45,-75.7496572,39.6837226,"newark"," delaware"," usa"
"355",355,"newcastle, new south wales, australia",45,151.781667,-32.928333,"newcastle"," new south wales"," australia"
"356",356,"poway, california, usa",45,-117.0358646,32.9628232,"poway"," california"," usa"
"357",357,"saint paul, minnesota, usa",45,-93.0899578,44.9537029,"saint paul"," minnesota"," usa"
"358",358,"topeka, kansas, usa",45,-95.6890185,39.0558235,"topeka"," kansas"," usa"
"359",359,"augsburg, bayern, germany",44,10.89779,48.3705449,"augsburg"," bayern"," germany"
"360",360,"erie, pennsylvania, usa",44,-80.085059,42.1292241,"erie"," pennsylvania"," usa"
"361",361,"erlangen, bayern, germany",44,11.0119611,49.5896744,"erlangen"," bayern"," germany"
"362",362,"kent, washington, usa",44,-122.2348431,47.3809335,"kent"," washington"," usa"
"363",363,"parma, emilia romagna, italy",44,10.3279036,44.801485,"parma"," emilia romagna"," italy"
"364",364,"peoria, illinois, usa",44,-89.5889864,40.6936488,"peoria"," illinois"," usa"
"365",365,"richmond, british columbia, canada",44,-123.133569,49.1665898,"richmond"," british columbia"," canada"
"366",366,"rockville, maryland, usa",44,-77.1527578,39.0839973,"rockville"," maryland"," usa"
"367",367,"westfield, new jersey, usa",44,-74.3473717,40.6589912,"westfield"," new jersey"," usa"
"368",368,"albany, new york, usa",43,-73.7562317,42.6525793,"albany"," new york"," usa"
"369",369,"alpharetta, georgia, usa",43,-84.2940899,34.0753762,"alpharetta"," georgia"," usa"
"370",370,"amarillo, texas, usa",43,-101.8312969,35.2219971,"amarillo"," texas"," usa"
"371",371,"barrie, ontario, canada",43,-79.6903316,44.3893556,"barrie"," ontario"," canada"
"372",372,"bielefeld, nordrhein-westfalen, germany",43,8.5324708,52.0302285,"bielefeld"," nordrhein-westfalen"," germany"
"373",373,"bilbao, vizcaya, spain",43,-2.9349852,43.2630126,"bilbao"," vizcaya"," spain"
"374",374,"davis, california, usa",43,-121.7405167,38.5449065,"davis"," california"," usa"
"375",375,"irvine, california, usa",43,-117.7946942,33.6839473,"irvine"," california"," usa"
"376",376,"karachi, sindh, pakistan",43,67.0099388,24.8614622,"karachi"," sindh"," pakistan"
"377",377,"kelowna, british columbia, canada",43,-119.4960106,49.8879519,"kelowna"," british columbia"," canada"
"378",378,"las cruces, new mexico, usa",43,-106.7636538,32.3199396,"las cruces"," new mexico"," usa"
"379",379,"new westminster, british columbia, canada",43,-122.910956,49.2057179,"new westminster"," british columbia"," canada"
"380",380,"oldenburg, niedersachsen, germany",43,8.2145521,53.1434501,"oldenburg"," niedersachsen"," germany"
"381",381,"redmond, washington, usa",43,-122.121512,47.6739881,"redmond"," washington"," usa"
"382",382,"rochester, minnesota, usa",43,-92.4801989,44.0121221,"rochester"," minnesota"," usa"
"383",383,"sao paulo, sao paulo, brazil",43,-46.6333094,-23.5505199,"sao paulo"," sao paulo"," brazil"
"384",384,"tehran, n/a, iran",43,51.3889736,35.6891975,"tehran"," n/a"," iran"
"385",385,"wuppertal, nordrhein-westfalen, germany",43,7.1507636,51.2562128,"wuppertal"," nordrhein-westfalen"," germany"
"386",386,"yakima, washington, usa",43,-120.5058987,46.6020711,"yakima"," washington"," usa"
"387",387,"concord, california, usa",42,-122.0310733,37.9779776,"concord"," california"," usa"
"388",388,"corpus christi, texas, usa",42,-97.396381,27.8005828,"corpus christi"," texas"," usa"
"389",389,"fort collins, colorado, usa",42,-105.084423,40.5852602,"fort collins"," colorado"," usa"
"390",390,"fort lauderdale, florida, usa",42,-80.1373174,26.1224386,"fort lauderdale"," florida"," usa"
"391",391,"garland, texas, usa",42,-96.6388833,32.912624,"garland"," texas"," usa"
"392",392,"lausanne, vaud, switzerland",42,6.6322734,46.5196535,"lausanne"," vaud"," switzerland"
"393",393,"ny, new york, usa",42,-74.0059413,40.7127837,"ny"," new york"," usa"
"394",394,"overland park, kansas, usa",42,-94.6707917,38.9822282,"overland park"," kansas"," usa"
"395",395,"pamplona, navarra, spain",42,-1.6457745,42.812526,"pamplona"," navarra"," spain"
"396",396,"santa fe, new mexico, usa",42,-105.937799,35.6869752,"santa fe"," new mexico"," usa"
"397",397,"state college, pennsylvania, usa",42,-77.8600012,40.7933949,"state college"," pennsylvania"," usa"
"398",398,"stockholm, stockholm, sweden",42,18.0685808,59.3293235,"stockholm"," stockholm"," sweden"
"399",399,"tigard, oregon, usa",42,-122.7714861,45.4312294,"tigard"," oregon"," usa"
"400",400,"valladolid, valladolid, spain",42,-4.7245321,41.652251,"valladolid"," valladolid"," spain"
"401",401,"wellington, wellington, new zealand",42,174.776236,-41.2864603,"wellington"," wellington"," new zealand"
"402",402,"worcester, massachusetts, usa",42,-71.8022934,42.2625932,"worcester"," massachusetts"," usa"
"403",403,"zaragoza, aragón, spain",42,-0.1277583,51.5073509,"zaragoza"," aragón"," spain"
"404",404,"zaragoza, aragon, spain",42,-0.8890853,41.6488226,"zaragoza"," aragon"," spain"
"405",405,"bern, bern, switzerland",41,7.4474468,46.9479739,"bern"," bern"," switzerland"
"406",406,"charleston, west virginia, usa",41,-81.6326234,38.3498195,"charleston"," west virginia"," usa"
"407",407,"derby, england, united kingdom",41,-1.4746186,52.9225301,"derby"," england"," united kingdom"
"408",408,"evansville, indiana, usa",41,-87.5710898,37.9715592,"evansville"," indiana"," usa"
"409",409,"la mesa, california, usa",41,-117.0230839,32.7678287,"la mesa"," california"," usa"
"410",410,"oviedo, asturias, spain",41,-5.8493887,43.3619145,"oviedo"," asturias"," spain"
"411",411,"peterborough, ontario, canada",41,-78.319747,44.309058,"peterborough"," ontario"," canada"
"412",412,"redondo beach, california, usa",41,-118.3884078,33.8491816,"redondo beach"," california"," usa"
"413",413,"san mateo, california, usa",41,-122.3255254,37.5629917,"san mateo"," california"," usa"
"414",414,"sherman oaks, california, usa",41,-118.451357,34.1489719,"sherman oaks"," california"," usa"
"415",415,"spring, texas, usa",41,-95.4171601,30.0799405,"spring"," texas"," usa"
"416",416,"wilmington, north carolina, usa",41,-77.9447102,34.2257255,"wilmington"," north carolina"," usa"
"417",417,"ypsilanti, michigan, usa",41,-83.6135572,42.1966292,"ypsilanti"," michigan"," usa"
"418",418,"bradenton, florida, usa",40,-82.5748194,27.4989278,"bradenton"," florida"," usa"
"419",419,"escondido, california, usa",40,-117.086421,33.1192068,"escondido"," california"," usa"
"420",420,"geelong, victoria, australia",40,144.3617186,-38.1499181,"geelong"," victoria"," australia"
"421",421,"glendale, arizona, usa",40,-112.1859866,33.5386523,"glendale"," arizona"," usa"
"422",422,"lakewood, colorado, usa",40,-105.0813734,39.7047095,"lakewood"," colorado"," usa"
"423",423,"new haven, connecticut, usa",40,-72.9278835,41.308274,"new haven"," connecticut"," usa"
"424",424,"new york city, new york, usa",40,-74.0059413,40.7127837,"new york city"," new york"," usa"
"425",425,"palmerston north, manawatu, new zealand",40,175.6082145,-40.3523065,"palmerston north"," manawatu"," new zealand"
"426",426,"renton, washington, usa",40,-122.2170661,47.4828776,"renton"," washington"," usa"
"427",427,"summerville, south carolina, usa",40,-80.1756481,33.0185039,"summerville"," south carolina"," usa"
"428",428,"zürich, zürich, switzerland",40,-0.1277583,51.5073509,"zürich"," zürich"," switzerland"
"429",429,"brampton, ontario, canada",39,-79.7624177,43.7315479,"brampton"," ontario"," canada"
"430",430,"kuala lumpur, kuala lumpur, malaysia",39,101.686855,3.139003,"kuala lumpur"," kuala lumpur"," malaysia"
"431",431,"montréal, quebec, canada",39,-0.1277583,51.5073509,"montréal"," quebec"," canada"
"432",432,"saint john, new brunswick, canada",39,-66.0633081,45.2733153,"saint john"," new brunswick"," canada"
"433",433,"santa clara, california, usa",39,-121.9552356,37.3541079,"santa clara"," california"," usa"
"434",434,"stuttgart, baden-württemberg, germany",39,-0.1277583,51.5073509,"stuttgart"," baden-württemberg"," germany"
"435",435,"belfast, northern ireland, united kingdom",38,-5.93012,54.597285,"belfast"," northern ireland"," united kingdom"
"436",436,"denton, texas, usa",38,-97.1330683,33.2148412,"denton"," texas"," usa"
"437",437,"duesseldorf, nordrhein-westfalen, germany",38,6.7734556,51.2277411,"duesseldorf"," nordrhein-westfalen"," germany"
"438",438,"fredericksburg, virginia, usa",38,-77.4605399,38.3031837,"fredericksburg"," virginia"," usa"
"439",439,"fullerton, california, usa",38,-117.9242966,33.8703596,"fullerton"," california"," usa"
"440",440,"langley, british columbia, canada",38,-122.5593218,49.0743308,"langley"," british columbia"," canada"
"441",441,"naples, florida, usa",38,-81.7948103,26.1420358,"naples"," florida"," usa"
"442",442,"olathe, kansas, usa",38,-94.8191285,38.8813958,"olathe"," kansas"," usa"
"443",443,"oshawa, ontario, canada",38,-78.8657912,43.8970929,"oshawa"," ontario"," canada"
"444",444,"shreveport, louisiana, usa",38,-93.7501789,32.5251516,"shreveport"," louisiana"," usa"
"445",445,"sioux falls, south dakota, usa",38,-96.7311034,43.5445959,"sioux falls"," south dakota"," usa"
"446",446,"vigo, pontevedra, spain",38,-8.7207268,42.2405989,"vigo"," pontevedra"," spain"
"447",447,"appleton, wisconsin, usa",37,-88.4153847,44.2619309,"appleton"," wisconsin"," usa"
"448",448,"longmont, colorado, usa",37,-105.1019275,40.1672068,"longmont"," colorado"," usa"
"449",449,"lynchburg, virginia, usa",37,-79.1422464,37.4137536,"lynchburg"," virginia"," usa"
"450",450,"modena, emilia romagna, italy",37,10.9252269,44.647128,"modena"," emilia romagna"," italy"
"451",451,"norman, oklahoma, usa",37,-97.4394777,35.2225668,"norman"," oklahoma"," usa"
"452",452,"nyc, new york, usa",37,-74.0059413,40.7127837,"nyc"," new york"," usa"
"453",453,"orleans, ontario, canada",37,-75.5047333,45.4558019,"orleans"," ontario"," canada"
"454",454,"richardson, texas, usa",37,-96.7298519,32.9483335,"richardson"," texas"," usa"
"455",455,"roseville, california, usa",37,-121.2880059,38.7521235,"roseville"," california"," usa"
"456",456,"royal oak, michigan, usa",37,-83.1446485,42.4894801,"royal oak"," michigan"," usa"
"457",457,"shanghai, n/a, china",37,121.473701,31.230416,"shanghai"," n/a"," china"
"458",458,"simi valley, california, usa",37,-118.781482,34.2694474,"simi valley"," california"," usa"
"459",459,"st. catharines, ontario, canada",37,-79.2468626,43.1593745,"st. catharines"," ontario"," canada"
"460",460,"stamford, connecticut, usa",37,-73.5387341,41.0534302,"stamford"," connecticut"," usa"
"461",461,"verona, veneto, italy",37,10.9916215,45.4383842,"verona"," veneto"," italy"
"462",462,"athens, n/a, greece",36,23.7275388,37.9838096,"athens"," n/a"," greece"
"463",463,"east lansing, michigan, usa",36,-84.4838654,42.7369792,"east lansing"," michigan"," usa"
"464",464,"encinitas, california, usa",36,-117.2919818,33.0369867,"encinitas"," california"," usa"
"465",465,"flagstaff, arizona, usa",36,-111.651302,35.1982836,"flagstaff"," arizona"," usa"
"466",466,"glendale, california, usa",36,-118.255075,34.1425078,"glendale"," california"," usa"
"467",467,"montgomery, alabama, usa",36,-86.2999689,32.3668052,"montgomery"," alabama"," usa"
"468",468,"nijmegen, gelderland, netherlands",36,5.8372264,51.8125626,"nijmegen"," gelderland"," netherlands"
"469",469,"norwich, norfolk, united kingdom",36,1.297355,52.6308859,"norwich"," norfolk"," united kingdom"
"470",470,"roswell, georgia, usa",36,-84.3615555,34.0232431,"roswell"," georgia"," usa"
"471",471,"sandpoint, idaho, usa",36,-116.553465,48.276577,"sandpoint"," idaho"," usa"
"472",472,"urbana, illinois, usa",36,-88.2072697,40.1105875,"urbana"," illinois"," usa"
"473",473,"winter park, florida, usa",36,-81.3392352,28.5999998,"winter park"," florida"," usa"
"474",474,"bethesda, maryland, usa",35,-77.0947092,38.984652,"bethesda"," maryland"," usa"
"475",475,"chester, england, united kingdom",35,-2.893075,53.193392,"chester"," england"," united kingdom"
"476",476,"costa mesa, california, usa",35,-117.9186689,33.6411316,"costa mesa"," california"," usa"
"477",477,"harrisburg, pennsylvania, usa",35,-76.8867008,40.2731911,"harrisburg"," pennsylvania"," usa"
"478",478,"jersey city, new jersey, usa",35,-74.0776417,40.7281575,"jersey city"," new jersey"," usa"
"479",479,"lake oswego, oregon, usa",35,-122.6706498,45.4206749,"lake oswego"," oregon"," usa"
"480",480,"lima, lima, peru",35,-77.0427934,-12.046374,"lima"," lima"," peru"
"481",481,"maple ridge, british columbia, canada",35,-122.598398,49.2193226,"maple ridge"," british columbia"," canada"
"482",482,"munich, bavaria, germany",35,11.5819806,48.1351253,"munich"," bavaria"," germany"
"483",483,"newport news, virginia, usa",35,-76.4730122,37.0870821,"newport news"," virginia"," usa"
"484",484,"reston, virginia, usa",35,-77.3570028,38.9586307,"reston"," virginia"," usa"
"485",485,"sonoma, california, usa",35,-122.4580356,38.291859,"sonoma"," california"," usa"
"486",486,"westerville, ohio, usa",35,-82.9290696,40.1261743,"westerville"," ohio"," usa"
"487",487,", ,",34,NA,NA,""," ",""
"488",488,"abbotsford, british columbia, canada",34,-122.3044697,49.0504377,"abbotsford"," british columbia"," canada"
"489",489,"allentown, pennsylvania, usa",34,-75.4901833,40.6084305,"allentown"," pennsylvania"," usa"
"490",490,"apex, north carolina, usa",34,-78.8502856,35.732652,"apex"," north carolina"," usa"
"491",491,"columbia, maryland, usa",34,-76.8610462,39.2037144,"columbia"," maryland"," usa"
"492",492,"coquitlam, british columbia, canada",34,-122.7932065,49.2837626,"coquitlam"," british columbia"," canada"
"493",493,"coral springs, florida, usa",34,-80.2706044,26.271192,"coral springs"," florida"," usa"
"494",494,"coventry, england, united kingdom",34,-1.519693,52.406822,"coventry"," england"," united kingdom"
"495",495,"göttingen, niedersachsen, germany",34,-0.1277583,51.5073509,"göttingen"," niedersachsen"," germany"
"496",496,"groningen, groningen, netherlands",34,6.5665018,53.2193835,"groningen"," groningen"," netherlands"
"497",497,"hong kong, n/a, hong kong",34,114.174695,22.2783151,"hong kong"," n/a"," hong kong"
"498",498,"lansdale, pennsylvania, usa",34,-75.2837862,40.2414952,"lansdale"," pennsylvania"," usa"
"499",499,"manila, n/a, philippines",34,120.9842195,14.5995124,"manila"," n/a"," philippines"
"500",500,"oak park, illinois, usa",34,-87.7845025,41.8850317,"oak park"," illinois"," usa"
"501",501,"paris, ile-de-france, france",34,2.3522219,48.856614,"paris"," ile-de-france"," france"
"502",502,"pleasanton, california, usa",34,-121.8746789,37.6624312,"pleasanton"," california"," usa"
"503",503,"preston, england, united kingdom",34,-2.70309,53.763201,"preston"," england"," united kingdom"
"504",504,"south bend, indiana, usa",34,-86.2519898,41.6763545,"south bend"," indiana"," usa"
"505",505,"vicenza, veneto, italy",34,11.5354214,45.5454787,"vicenza"," veneto"," italy"
"506",506,"west chester, pennsylvania, usa",34,-75.6054882,39.9606643,"west chester"," pennsylvania"," usa"
"507",507,"melbourne, florida, usa",33,-80.6081089,28.0836269,"melbourne"," florida"," usa"
"508",508,"muskegon, michigan, usa",33,-86.2483921,43.2341813,"muskegon"," michigan"," usa"
"509",509,"petaling jaya, selangor, malaysia",33,101.5944885,3.1278871,"petaling jaya"," selangor"," malaysia"
"510",510,"rapid city, south dakota, usa",33,-103.2310149,44.0805434,"rapid city"," south dakota"," usa"
"511",511,"regensburg, bayern, germany",33,12.1016236,49.0134297,"regensburg"," bayern"," germany"
"512",512,"rockford, illinois, usa",33,-89.0939952,42.2711311,"rockford"," illinois"," usa"
"513",513,"santa ana, california, usa",33,-117.8678338,33.7455731,"santa ana"," california"," usa"
"514",514,"st paul, minnesota, usa",33,-93.0899578,44.9537029,"st paul"," minnesota"," usa"
"515",515,"strasbourg, alsace, france",33,7.7521113,48.5734053,"strasbourg"," alsace"," france"
"516",516,"swansea, wales, united kingdom",33,-3.943646,51.62144,"swansea"," wales"," united kingdom"
"517",517,"toowoomba, queensland, australia",33,151.9506696,-27.5598212,"toowoomba"," queensland"," australia"
"518",518,"whitehorse, yukon territory, canada",33,-135.0568449,60.7211871,"whitehorse"," yukon territory"," canada"
"519",519,"bergamo, lombardia, italy",32,9.6772698,45.6982642,"bergamo"," lombardia"," italy"
"520",520,"bismarck, north dakota, usa",32,-100.7837392,46.8083268,"bismarck"," north dakota"," usa"
"521",521,"bothell, washington, usa",32,-122.2037878,47.7602368,"bothell"," washington"," usa"
"522",522,"brookline, massachusetts, usa",32,-71.1211635,42.3317642,"brookline"," massachusetts"," usa"
"523",523,"college station, texas, usa",32,-96.3344068,30.627977,"college station"," texas"," usa"
"524",524,"douglasville, georgia, usa",32,-84.7477136,33.7514966,"douglasville"," georgia"," usa"
"525",525,"durham, england, united kingdom",32,-1.584852,54.77525,"durham"," england"," united kingdom"
"526",526,"enschede, overijssel, netherlands",32,6.8936619,52.2215372,"enschede"," overijssel"," netherlands"
"527",527,"flushing, new york, usa",32,-73.833079,40.7674987,"flushing"," new york"," usa"
"528",528,"gaithersburg, maryland, usa",32,-77.2013705,39.1434406,"gaithersburg"," maryland"," usa"
"529",529,"gelsenkirchen, nordrhein-westfalen, germany",32,7.0857172,51.517744,"gelsenkirchen"," nordrhein-westfalen"," germany"
"530",530,"granada, granada, spain",32,-3.5985571,37.1773363,"granada"," granada"," spain"
"531",531,"lüneburg, niedersachsen, germany",32,-0.1277583,51.5073509,"lüneburg"," niedersachsen"," germany"
"532",532,"montclair, new jersey, usa",32,-74.2090053,40.8259007,"montclair"," new jersey"," usa"
"533",533,"novato, california, usa",32,-122.5697032,38.1074198,"novato"," california"," usa"
"534",534,"ocala, florida, usa",32,-82.1400923,29.1871986,"ocala"," florida"," usa"
"535",535,"round rock, texas, usa",32,-97.678896,30.5082551,"round rock"," texas"," usa"
"536",536,"saginaw, michigan, usa",32,-83.9508068,43.4194699,"saginaw"," michigan"," usa"
"537",537,"sugar land, texas, usa",32,-95.6349463,29.6196787,"sugar land"," texas"," usa"
"538",538,"cape coral, florida, usa",31,-81.9495331,26.5628537,"cape coral"," florida"," usa"
"539",539,"dublin, leinster, ireland",31,-6.2603097,53.3498053,"dublin"," leinster"," ireland"
"540",540,"falls church, virginia, usa",31,-77.1710914,38.882334,"falls church"," virginia"," usa"
"541",541,"frederick, maryland, usa",31,-77.4105409,39.4142688,"frederick"," maryland"," usa"
"542",542,"hayward, california, usa",31,-122.0807964,37.6688205,"hayward"," california"," usa"
"543",543,"jackson, michigan, usa",31,-84.4013462,42.245869,"jackson"," michigan"," usa"
"544",544,"kissimmee, florida, usa",31,-81.407571,28.2919557,"kissimmee"," florida"," usa"
"545",545,"mckinney, texas, usa",31,-96.6397822,33.1972465,"mckinney"," texas"," usa"
"546",546,"milton keynes, england, united kingdom",31,-0.7594171,52.0406224,"milton keynes"," england"," united kingdom"
"547",547,"muncie, indiana, usa",31,-85.3863599,40.1933767,"muncie"," indiana"," usa"
"548",548,"orange, california, usa",31,-117.8531119,33.7877944,"orange"," california"," usa"
"549",549,"panama city, florida, usa",31,-85.6602058,30.1588129,"panama city"," florida"," usa"
"550",550,"petaluma, california, usa",31,-122.6366524,38.232417,"petaluma"," california"," usa"
"551",551,"sherwood park, alberta, canada",31,-113.2957365,53.5412083,"sherwood park"," alberta"," canada"
"552",552,"sterling, virginia, usa",31,-77.4291298,39.0066993,"sterling"," virginia"," usa"
"553",553,"uppsala, uppland, sweden",31,17.6023696,59.6063917,"uppsala"," uppland"," sweden"
"554",554,"vienna, n/a, austria",31,16.3738189,48.2081743,"vienna"," n/a"," austria"
"555",555,"vista, california, usa",31,-117.2425355,33.2000368,"vista"," california"," usa"
"556",556,"westminster, maryland, usa",31,-76.9958149,39.5753791,"westminster"," maryland"," usa"
"557",557,"yarmouth, nova scotia, canada",31,-66.117382,43.8374576,"yarmouth"," nova scotia"," canada"
"558",558,"astoria, new york, usa",30,-73.9234619,40.7643574,"astoria"," new york"," usa"
"559",559,"aurora, illinois, usa",30,-88.3200715,41.7605849,"aurora"," illinois"," usa"
"560",560,"bloomington, illinois, usa",30,-88.9936873,40.4842027,"bloomington"," illinois"," usa"
"561",561,"capital federal, buenos aires, argentina",30,-58.3815591,-34.6036844,"capital federal"," buenos aires"," argentina"
"562",562,"katy, texas, usa",30,-95.8243956,29.7857853,"katy"," texas"," usa"
"563",563,"kirkwood, missouri, usa",30,-90.406785,38.5833862,"kirkwood"," missouri"," usa"
"564",564,"medford, oregon, usa",30,-122.8755949,42.3265152,"medford"," oregon"," usa"
"565",565,"oregon city, oregon, usa",30,-122.6067583,45.3573429,"oregon city"," oregon"," usa"
"566",566,"perugia, umbria, italy",30,12.3908279,43.1107168,"perugia"," umbria"," italy"
"567",567,"puyallup, washington, usa",30,-122.2928974,47.1853785,"puyallup"," washington"," usa"
"568",568,"rotterdam, zuid-holland, netherlands",30,4.4777325,51.9244201,"rotterdam"," zuid-holland"," netherlands"
"569",569,"sevilla, andalucia, spain",30,-5.9844589,37.3890924,"sevilla"," andalucia"," spain"
"570",570,"stafford, virginia, usa",30,-77.4083086,38.4220687,"stafford"," virginia"," usa"
"571",571,"townsville, queensland, australia",30,146.8169483,-19.2589635,"townsville"," queensland"," australia"
"572",572,"ventura, california, usa",30,-119.2290316,34.274646,"ventura"," california"," usa"
"573",573,"wauwatosa, wisconsin, usa",30,-88.0075875,43.0494572,"wauwatosa"," wisconsin"," usa"
"574",574,"woodstock, georgia, usa",30,-84.5193754,34.1014873,"woodstock"," georgia"," usa"
"575",575,"zurich, zurich, switzerland",30,8.541694,47.3768866,"zurich"," zurich"," switzerland"
"576",576,"aloha, oregon, usa",29,-122.8670454,45.4942838,"aloha"," oregon"," usa"
"577",577,"arvada, colorado, usa",29,-105.0874842,39.8027644,"arvada"," colorado"," usa"
"578",578,"beverly hills, california, usa",29,-118.4003563,34.0736204,"beverly hills"," california"," usa"
"579",579,"brantford, ontario, canada",29,-80.2644254,43.1393867,"brantford"," ontario"," canada"
"580",580,"cape town, western cape, south africa",29,18.4240553,-33.9248685,"cape town"," western cape"," south africa"
"581",581,"edmond, oklahoma, usa",29,-97.4780954,35.6528323,"edmond"," oklahoma"," usa"
"582",582,"graz, steiermark, austria",29,15.439504,47.070714,"graz"," steiermark"," austria"
"583",583,"herkimer, new york, usa",29,-74.9859889,43.0256259,"herkimer"," new york"," usa"
"584",584,"hollywood, florida, usa",29,-80.1494901,26.0112014,"hollywood"," florida"," usa"
"585",585,"jena, thueringen, germany",29,11.5892372,50.927054,"jena"," thueringen"," germany"
"586",586,"lafayette, louisiana, usa",29,-92.0198427,30.2240897,"lafayette"," louisiana"," usa"
"587",587,"lahore, punjab, pakistan",29,74.3571581,31.5546061,"lahore"," punjab"," pakistan"
"588",588,"largo, florida, usa",29,-82.7873244,27.9094665,"largo"," florida"," usa"
"589",589,"loveland, colorado, usa",29,-105.0749801,40.3977612,"loveland"," colorado"," usa"
"590",590,"lubbock, texas, usa",29,-101.8551665,33.5778631,"lubbock"," texas"," usa"
"591",591,"milano, milano, italy",29,9.1859243,45.4654219,"milano"," milano"," italy"
"592",592,"missoula, montana, usa",29,-113.996586,46.8787176,"missoula"," montana"," usa"
"593",593,"plymouth, england, united kingdom",29,-4.1426565,50.3754565,"plymouth"," england"," united kingdom"
"594",594,"san leandro, california, usa",29,-122.1560768,37.7249296,"san leandro"," california"," usa"
"595",595,"springfield, virginia, usa",29,-77.1872036,38.7892801,"springfield"," virginia"," usa"
"596",596,"the woodlands, texas, usa",29,-95.4612625,30.1658207,"the woodlands"," texas"," usa"
"597",597,"west palm beach, florida, usa",29,-80.0533746,26.7153424,"west palm beach"," florida"," usa"
"598",598,"anaheim, california, usa",28,-117.9145036,33.8352932,"anaheim"," california"," usa"
"599",599,"belo horizonte, minas gerais, brazil",28,-43.9344931,-19.9166813,"belo horizonte"," minas gerais"," brazil"
"600",600,"bremerton, washington, usa",28,-122.6269768,47.5650067,"bremerton"," washington"," usa"
"601",601,"campinas, são paulo, brazil",28,-0.1277583,51.5073509,"campinas"," são paulo"," brazil"
"602",602,"chilliwack, british columbia, canada",28,-121.9514666,49.1579401,"chilliwack"," british columbia"," canada"
"603",603,"clovis, california, usa",28,-119.7029194,36.8252277,"clovis"," california"," usa"
"604",604,"como, lombardia, italy",28,9.0851765,45.8080597,"como"," lombardia"," italy"
"605",605,"edmonds, washington, usa",28,-122.3773552,47.8106521,"edmonds"," washington"," usa"
"606",606,"kirkland, washington, usa",28,-122.2059833,47.6768927,"kirkland"," washington"," usa"
"607",607,"la jolla, california, usa",28,-117.2712717,32.8328112,"la jolla"," california"," usa"
"608",608,"logroño, la rioja, spain",28,-0.1277583,51.5073509,"logroño"," la rioja"," spain"
"609",609,"n/a, n/a, singapore",28,103.819836,1.352083,"n/a"," n/a"," singapore"
"610",610,"new bern, north carolina, usa",28,-77.0441143,35.108493,"new bern"," north carolina"," usa"
"611",611,"newcastle upon tyne, england, united kingdom",28,-1.61778,54.978252,"newcastle upon tyne"," england"," united kingdom"
"612",612,"nuernberg, bayern, germany",28,11.0796553,49.4254092,"nuernberg"," bayern"," germany"
"613",613,"o`fallon, missouri, usa",28,-90.6998477,38.8106075,"o`fallon"," missouri"," usa"
"614",614,"oslo, oslo, norway",28,10.7522454,59.9138688,"oslo"," oslo"," norway"
"615",615,"reading, pennsylvania, usa",28,-75.9268747,40.3356483,"reading"," pennsylvania"," usa"
"616",616,"san rafael, california, usa",28,-122.5310874,37.9735346,"san rafael"," california"," usa"
"617",617,"scarborough, ontario, canada",28,-79.2317521,43.7764258,"scarborough"," ontario"," canada"
"618",618,"st. peters, missouri, usa",28,-90.6298922,38.7874699,"st. peters"," missouri"," usa"
"619",619,"valencia, comunidad valenciana, spain",28,-0.3762881,39.4699075,"valencia"," comunidad valenciana"," spain"
"620",620,"winter haven, florida, usa",28,-81.7328567,28.0222435,"winter haven"," florida"," usa"
"621",621,"ames, iowa, usa",27,-93.6319131,42.0307812,"ames"," iowa"," usa"
"622",622,"bethlehem, pennsylvania, usa",27,-75.3704579,40.6259316,"bethlehem"," pennsylvania"," usa"
"623",623,"buenos aires, capital federal, argentina",27,-58.3815591,-34.6036844,"buenos aires"," capital federal"," argentina"
"624",624,"cagliari, sardegna, italy",27,9.1216613,39.2238411,"cagliari"," sardegna"," italy"
"625",625,"canton, ohio, usa",27,-81.378447,40.7989473,"canton"," ohio"," usa"
"626",626,"carmichael, california, usa",27,-121.3282843,38.617127,"carmichael"," california"," usa"
"627",627,"cherry hill, new jersey, usa",27,-75.0246312,39.926813,"cherry hill"," new jersey"," usa"
"628",628,"darwin, northern territory, australia",27,130.8456418,-12.4634403,"darwin"," northern territory"," australia"
"629",629,"eureka, california, usa",27,-124.1636729,40.8020712,"eureka"," california"," usa"
"630",630,"florissant, missouri, usa",27,-90.322614,38.789217,"florissant"," missouri"," usa"
"631",631,"flower mound, texas, usa",27,-97.0969552,33.0145673,"flower mound"," texas"," usa"
"632",632,"folsom, california, usa",27,-121.1760583,38.6779591,"folsom"," california"," usa"
"633",633,"fort myers, florida, usa",27,-81.8723084,26.640628,"fort myers"," florida"," usa"
"634",634,"hull, england, united kingdom",27,-0.3367413,53.7456709,"hull"," england"," united kingdom"
"635",635,"la, california, usa",27,-118.2436849,34.0522342,"la"," california"," usa"
"636",636,"lafayette, indiana, usa",27,-86.8752869,40.4167022,"lafayette"," indiana"," usa"
"637",637,"murcia, murcia, spain",27,-1.1306544,37.9922399,"murcia"," murcia"," spain"
"638",638,"murfreesboro, tennessee, usa",27,-86.39027,35.8456213,"murfreesboro"," tennessee"," usa"
"639",639,"nepean, ontario, canada",27,-75.7241006,45.3349046,"nepean"," ontario"," canada"
"640",640,"north hollywood, california, usa",27,-118.3812562,34.187044,"north hollywood"," california"," usa"
"641",641,"ourense, ourense, spain",27,-7.863881,42.3357893,"ourense"," ourense"," spain"
"642",642,"porto alegre, rio grande do sul, brazil",27,-51.2176584,-30.0346471,"porto alegre"," rio grande do sul"," brazil"
"643",643,"salzburg, salzburg, austria",27,13.05501,47.80949,"salzburg"," salzburg"," austria"
"644",644,"sarnia, ontario, canada",27,-82.4065901,42.974536,"sarnia"," ontario"," canada"
"645",645,"schenectady, new york, usa",27,-73.9395687,42.8142432,"schenectady"," new york"," usa"
"646",646,"slidell, louisiana, usa",27,-89.7811745,30.2751945,"slidell"," louisiana"," usa"
"647",647,"tuebingen, baden-wuerttemberg, germany",27,9.0576448,48.5216364,"tuebingen"," baden-wuerttemberg"," germany"
"648",648,"vienna, virginia, usa",27,-77.2652604,38.9012225,"vienna"," virginia"," usa"
"649",649,"whittier, california, usa",27,-118.032844,33.9791793,"whittier"," california"," usa"
"650",650,"albany, oregon, usa",26,-123.1059282,44.6365107,"albany"," oregon"," usa"
"651",651,"ankara, n/a, turkey",26,32.8597419,39.9333635,"ankara"," n/a"," turkey"
"652",652,"arlington heights, illinois, usa",26,-87.9806265,42.0883603,"arlington heights"," illinois"," usa"
"653",653,"ashland, oregon, usa",26,-122.7094767,42.1945758,"ashland"," oregon"," usa"
"654",654,"bilbao, bizkaia, spain",26,-2.9349852,43.2630126,"bilbao"," bizkaia"," spain"
"655",655,"bloomington, minnesota, usa",26,-93.2982799,44.840798,"bloomington"," minnesota"," usa"
"656",656,"cartagena, murcia, spain",26,-0.9965839,37.6256827,"cartagena"," murcia"," spain"
"657",657,"cleveland heights, ohio, usa",26,-81.556235,41.5200518,"cleveland heights"," ohio"," usa"
"658",658,"dunedin, n/a, new zealand",26,170.5027976,-45.8787605,"dunedin"," n/a"," new zealand"
"659",659,"eau claire, wisconsin, usa",26,-91.4984941,44.811349,"eau claire"," wisconsin"," usa"
"660",660,"farmington hills, michigan, usa",26,-83.3677168,42.4989936,"farmington hills"," michigan"," usa"
"661",661,"hamilton, waikato, new zealand",26,175.279253,-37.7870012,"hamilton"," waikato"," new zealand"
"662",662,"hartford, connecticut, usa",26,-72.6850932,41.7637111,"hartford"," connecticut"," usa"
"663",663,"juneau, alaska, usa",26,-134.4197222,58.3019444,"juneau"," alaska"," usa"
"664",664,"lancaster, california, usa",26,-118.1541632,34.6867846,"lancaster"," california"," usa"
"665",665,"macon, georgia, usa",26,-83.6324022,32.8406946,"macon"," georgia"," usa"
"666",666,"manchester, n/a, united kingdom",26,-2.2426305,53.4807593,"manchester"," n/a"," united kingdom"
"667",667,"marburg, hessen, germany",26,8.7667933,50.8021728,"marburg"," hessen"," germany"
"668",668,"medford, massachusetts, usa",26,-71.1061639,42.4184296,"medford"," massachusetts"," usa"
"669",669,"menlo park, california, usa",26,-122.1817252,37.4529598,"menlo park"," california"," usa"
"670",670,"mentor, ohio, usa",26,-81.339552,41.6661573,"mentor"," ohio"," usa"
"671",671,"metairie, louisiana, usa",26,-90.1528519,29.9840922,"metairie"," louisiana"," usa"
"672",672,"moncton, new brunswick, canada",26,-64.7782313,46.0878165,"moncton"," new brunswick"," canada"
"673",673,"oslo, n/a, norway",26,10.7522454,59.9138688,"oslo"," n/a"," norway"
"674",674,"osnabrück, niedersachsen, germany",26,-0.1277583,51.5073509,"osnabrück"," niedersachsen"," germany"
"675",675,"peterborough, england, united kingdom",26,-0.2405299,52.5694985,"peterborough"," england"," united kingdom"
"676",676,"pisa, toscana, italy",26,10.4016888,43.7228386,"pisa"," toscana"," italy"
"677",677,"port orchard, washington, usa",26,-122.6362492,47.5403732,"port orchard"," washington"," usa"
"678",678,"portsmouth, england, united kingdom",26,-1.0879769,50.8197675,"portsmouth"," england"," united kingdom"
"679",679,"richmond hill, ontario, canada",26,-79.4402808,43.8828401,"richmond hill"," ontario"," canada"
"680",680,"sandy, utah, usa",26,-111.8389726,40.5649781,"sandy"," utah"," usa"
"681",681,"seoul, n/a, south korea",26,126.9779692,37.566535,"seoul"," n/a"," south korea"
"682",682,"st.louis, missouri, usa",26,-90.3371889,38.6105426,"st.louis"," missouri"," usa"
"683",683,"toronto, ,",26,-79.3831843,43.653226,"toronto"," ",""
"684",684,"vacaville, california, usa",26,-121.9877444,38.3565773,"vacaville"," california"," usa"
"685",685,"west vancouver, british columbia, canada",26,-123.1667847,49.3348973,"west vancouver"," british columbia"," canada"
"686",686,"augusta, georgia, usa",25,-82.0105148,33.4734978,"augusta"," georgia"," usa"
"687",687,"bath, england, united kingdom",25,-2.3599039,51.375801,"bath"," england"," united kingdom"
"688",688,"binghamton, new york, usa",25,-75.9179738,42.0986867,"binghamton"," new york"," usa"
"689",689,"blacksburg, virginia, usa",25,-80.4139393,37.2295733,"blacksburg"," virginia"," usa"
"690",690,"burlington, vermont, usa",25,-73.212072,44.4758825,"burlington"," vermont"," usa"
"691",691,"camarillo, california, usa",25,-119.0376023,34.2163937,"camarillo"," california"," usa"
"692",692,"chesterfield, england, united kingdom",25,-1.421629,53.235048,"chesterfield"," england"," united kingdom"
"693",693,"colchester, england, united kingdom",25,0.891874,51.895927,"colchester"," england"," united kingdom"
"694",694,"fargo, north dakota, usa",25,-96.7898034,46.8771863,"fargo"," north dakota"," usa"
"695",695,"green bay, wisconsin, usa",25,-88.019826,44.519159,"green bay"," wisconsin"," usa"
"696",696,"humble, texas, usa",25,-95.2621553,29.9988312,"humble"," texas"," usa"
"697",697,"johannesburg, gauteng, south africa",25,28.0473051,-26.2041028,"johannesburg"," gauteng"," south africa"
"698",698,"kassel, hessen, germany",25,9.4797461,51.3127114,"kassel"," hessen"," germany"
"699",699,"leesburg, virginia, usa",25,-77.5636015,39.1156615,"leesburg"," virginia"," usa"
"700",700,"norwalk, connecticut, usa",25,-73.4081575,41.117744,"norwalk"," connecticut"," usa"
"701",701,"oviedo, florida, usa",25,-81.2081203,28.669997,"oviedo"," florida"," usa"
"702",702,"redwood city, california, usa",25,-122.2363548,37.4852152,"redwood city"," california"," usa"
"703",703,"richmond, california, usa",25,-122.3477486,37.9357576,"richmond"," california"," usa"
"704",704,"roma, roma, italy",25,12.4963655,41.9027835,"roma"," roma"," italy"
"705",705,"seoul, seoul, south korea",25,126.9779692,37.566535,"seoul"," seoul"," south korea"
"706",706,"sydney, nsw, australia",25,151.2092955,-33.8688197,"sydney"," nsw"," australia"
"707",707,"traverse city, michigan, usa",25,-85.6206317,44.7630567,"traverse city"," michigan"," usa"
"708",708,"waukesha, wisconsin, usa",25,-88.2314813,43.0116784,"waukesha"," wisconsin"," usa"
"709",709,"acworth, georgia, usa",24,-84.6768796,34.0659329,"acworth"," georgia"," usa"
"710",710,"auburn, alabama, usa",24,-85.4807825,32.6098566,"auburn"," alabama"," usa"
"711",711,"bamberg, bayern, germany",24,10.9027636,49.8988135,"bamberg"," bayern"," germany"
"712",712,"beijing, n/a, china",24,116.407395,39.904211,"beijing"," n/a"," china"
"713",713,"berlin, n/a, germany",24,13.404954,52.5200066,"berlin"," n/a"," germany"
"714",714,"billings, montana, usa",24,-108.5006904,45.7832856,"billings"," montana"," usa"
"715",715,"birmingham, west midlands, united kingdom",24,-1.890401,52.486243,"birmingham"," west midlands"," united kingdom"
"716",716,"brescia, lombardia, italy",24,10.2118019,45.5415526,"brescia"," lombardia"," italy"
"717",717,"bucharest, n/a, romania",24,26.1025384,44.4267674,"bucharest"," n/a"," romania"
"718",718,"coimbra, coimbra, portugal",24,-8.4102573,40.2033145,"coimbra"," coimbra"," portugal"
"719",719,"daly city, california, usa",24,-122.4702079,37.6879241,"daly city"," california"," usa"
"720",720,"exeter, england, united kingdom",24,-3.533899,50.718412,"exeter"," england"," united kingdom"
"721",721,"flint, michigan, usa",24,-83.6874562,43.0125274,"flint"," michigan"," usa"
"722",722,"florence, toscana, italy",24,11.2558136,43.7695604,"florence"," toscana"," italy"
"723",723,"framingham, massachusetts, usa",24,-71.4161565,42.279286,"framingham"," massachusetts"," usa"
"724",724,"geneva, geneva, switzerland",24,6.1431577,46.2043907,"geneva"," geneva"," switzerland"
"725",725,"kaiserslautern, rheinland-pfalz, germany",24,7.7491265,49.4400657,"kaiserslautern"," rheinland-pfalz"," germany"
"726",726,"kansas city, kansas, usa",24,-94.6274636,39.114053,"kansas city"," kansas"," usa"
"727",727,"laurel, maryland, usa",24,-76.8483061,39.0992752,"laurel"," maryland"," usa"
"728",728,"lethbridge, alberta, canada",24,-112.84184,49.69349,"lethbridge"," alberta"," canada"
"729",729,"ljubljana, n/a, slovenia",24,14.5057515,46.0569465,"ljubljana"," n/a"," slovenia"
"730",730,"manassas, virginia, usa",24,-77.4752667,38.7509488,"manassas"," virginia"," usa"
"731",731,"new port richey, florida, usa",24,-82.7192671,28.2441768,"new port richey"," florida"," usa"
"732",732,"plymouth, minnesota, usa",24,-93.4555093,45.0105194,"plymouth"," minnesota"," usa"
"733",733,"sudbury, ontario, canada",24,-80.9530353,46.522099,"sudbury"," ontario"," canada"
"734",734,"tampere, n/a, finland",24,23.7609535,61.4977524,"tampere"," n/a"," finland"
"735",735,"troy, michigan, usa",24,-83.1497751,42.6064095,"troy"," michigan"," usa"
"736",736,"tuscaloosa, alabama, usa",24,-87.5691735,33.2098407,"tuscaloosa"," alabama"," usa"
"737",737,"venice, california, usa",24,-118.4694832,33.9850469,"venice"," california"," usa"
"738",738,"visalia, california, usa",24,-119.2920585,36.3302284,"visalia"," california"," usa"
"739",739,"vitoria, alava, spain",24,-2.6817918,42.8591656,"vitoria"," alava"," spain"
"740",740,"waltham, massachusetts, usa",24,-71.2356113,42.3764852,"waltham"," massachusetts"," usa"
"741",741,"waterford, michigan, usa",24,-83.4066132,42.6907443,"waterford"," michigan"," usa"
"742",742,"wollongong, new south wales, australia",24,150.8930607,-34.4278121,"wollongong"," new south wales"," australia"
"743",743,"woodbridge, virginia, usa",24,-77.2497049,38.6581722,"woodbridge"," virginia"," usa"
"744",744,"a coruña, a coruña, spain",23,-0.1277583,51.5073509,"a coruña"," a coruña"," spain"
"745",745,"albany, california, usa",23,-122.2977475,37.88687,"albany"," california"," usa"
"746",746,"bari, puglia, italy",23,16.8718715,41.1171432,"bari"," puglia"," italy"
"747",747,"bolingbrook, illinois, usa",23,-88.0683955,41.6986416,"bolingbrook"," illinois"," usa"
"748",748,"bozeman, montana, usa",23,-111.0429339,45.6769979,"bozeman"," montana"," usa"
"749",749,"campbell river, british columbia, canada",23,-125.2733354,50.0331226,"campbell river"," british columbia"," canada"
"750",750,"carrollton, texas, usa",23,-96.8899636,32.9756415,"carrollton"," texas"," usa"
"751",751,"charlottetown, prince edward island, canada",23,-63.1310704,46.23824,"charlottetown"," prince edward island"," canada"
"752",752,"cupertino, california, usa",23,-122.0321823,37.3229978,"cupertino"," california"," usa"
"753",753,"delhi, delhi, india",23,77.2273958,28.6618976,"delhi"," delhi"," india"
"754",754,"gatineau, quebec, canada",23,-75.7012723,45.4765446,"gatineau"," quebec"," canada"
"755",755,"gijón, asturias, spain",23,-0.1277583,51.5073509,"gijón"," asturias"," spain"
"756",756,"gilbert, arizona, usa",23,-111.789027,33.3528264,"gilbert"," arizona"," usa"
"757",757,"gresham, oregon, usa",23,-122.4302013,45.5001357,"gresham"," oregon"," usa"
"758",758,"independence, missouri, usa",23,-94.4155068,39.0911161,"independence"," missouri"," usa"
"759",759,"jefferson city, missouri, usa",23,-92.1735164,38.5767017,"jefferson city"," missouri"," usa"
"760",760,"joplin, missouri, usa",23,-94.513281,37.0842271,"joplin"," missouri"," usa"
"761",761,"leiden, zuid-holland, netherlands",23,4.4970097,52.1601144,"leiden"," zuid-holland"," netherlands"
"762",762,"lynnwood, washington, usa",23,-122.3151313,47.8209301,"lynnwood"," washington"," usa"
"763",763,"mclean, virginia, usa",23,-77.1772604,38.9338676,"mclean"," virginia"," usa"
"764",764,"milwaukie, oregon, usa",23,-122.6392606,45.4462305,"milwaukie"," oregon"," usa"
"765",765,"mission viejo, california, usa",23,-117.6719953,33.6000232,"mission viejo"," california"," usa"
"766",766,"newport beach, california, usa",23,-117.9289469,33.6189101,"newport beach"," california"," usa"
"767",767,"newton, massachusetts, usa",23,-71.2092214,42.3370413,"newton"," massachusetts"," usa"
"768",768,"northampton, england, united kingdom",23,-0.902656,52.240477,"northampton"," england"," united kingdom"
"769",769,"pacifica, california, usa",23,-122.4869194,37.6138253,"pacifica"," california"," usa"
"770",770,"penticton, british columbia, canada",23,-119.5937077,49.4991381,"penticton"," british columbia"," canada"
"771",771,"port coquitlam, british columbia, canada",23,-122.7810708,49.2628382,"port coquitlam"," british columbia"," canada"
"772",772,"ravenna, emilia romagna, italy",23,12.2035294,44.4183598,"ravenna"," emilia romagna"," italy"
"773",773,"santa clarita, california, usa",23,-118.542586,34.3916641,"santa clarita"," california"," usa"
"774",774,"santee, california, usa",23,-116.9739167,32.8383828,"santee"," california"," usa"
"775",775,"taipei, n/a, taiwan",23,121.5654268,25.0329636,"taipei"," n/a"," taiwan"
"776",776,"turin, piemonte, italy",23,7.6868565,45.070312,"turin"," piemonte"," italy"
"777",777,"west des moines, iowa, usa",23,-93.711332,41.5772115,"west des moines"," iowa"," usa"
"778",778,"white rock, british columbia, canada",23,-122.802962,49.0253085,"white rock"," british columbia"," canada"
"779",779,"wildwood, missouri, usa",23,-90.6629047,38.582831,"wildwood"," missouri"," usa"
"780",780,"winchester, england, united kingdom",23,-1.310142,51.059771,"winchester"," england"," united kingdom"
"781",781,"badalona, barcelona, spain",22,2.2450325,41.4469883,"badalona"," barcelona"," spain"
"782",782,"bellevue, nebraska, usa",22,-95.9145568,41.1543623,"bellevue"," nebraska"," usa"
"783",783,"bendigo, victoria, australia",22,144.2793906,-36.7570157,"bendigo"," victoria"," australia"
"784",784,"bristol, n/a, united kingdom",22,-2.58791,51.454513,"bristol"," n/a"," united kingdom"
"785",785,"brussels, n/a, belgium",22,4.3517103,50.8503396,"brussels"," n/a"," belgium"
"786",786,"chelmsford, england, united kingdom",22,0.4685497,51.7355868,"chelmsford"," england"," united kingdom"
"787",787,"concord, new hampshire, usa",22,-71.5375718,43.2081366,"concord"," new hampshire"," usa"
"788",788,"conroe, texas, usa",22,-95.4560512,30.3118769,"conroe"," texas"," usa"
"789",789,"danbury, connecticut, usa",22,-73.4540111,41.394817,"danbury"," connecticut"," usa"
"790",790,"durango, colorado, usa",22,-107.8800667,37.27528,"durango"," colorado"," usa"
"791",791,"eagan, minnesota, usa",22,-93.1668858,44.8041322,"eagan"," minnesota"," usa"
"792",792,"ellicott city, maryland, usa",22,-76.7983067,39.2673283,"ellicott city"," maryland"," usa"
"793",793,"federal way, washington, usa",22,-122.3126222,47.3223221,"federal way"," washington"," usa"
"794",794,"franklin, tennessee, usa",22,-86.8688899,35.9250637,"franklin"," tennessee"," usa"
"795",795,"friendswood, texas, usa",22,-95.2010447,29.5293998,"friendswood"," texas"," usa"
"796",796,"grand prairie, texas, usa",22,-96.9977846,32.7459645,"grand prairie"," texas"," usa"
"797",797,"hampton, virginia, usa",22,-76.3452218,37.0298687,"hampton"," virginia"," usa"
"798",798,"idaho falls, idaho, usa",22,-112.0339645,43.4916514,"idaho falls"," idaho"," usa"
"799",799,"jackson, mississippi, usa",22,-90.1848103,32.2987573,"jackson"," mississippi"," usa"
"800",800,"jacksonville, north carolina, usa",22,-77.4302414,34.7540524,"jacksonville"," north carolina"," usa"
"801",801,"jerusalem, n/a, israel",22,35.21371,31.768319,"jerusalem"," n/a"," israel"
"802",802,"lodi, california, usa",22,-121.2722194,38.1341477,"lodi"," california"," usa"
"803",803,"málaga, málaga, spain",22,-0.1277583,51.5073509,"málaga"," málaga"," spain"
"804",804,"mansfield, pennsylvania, usa",22,-77.077468,41.8072961,"mansfield"," pennsylvania"," usa"
"805",805,"markham, ontario, canada",22,-79.3370188,43.8561002,"markham"," ontario"," canada"
"806",806,"mill valley, california, usa",22,-122.5449763,37.9060368,"mill valley"," california"," usa"
"807",807,"newmarket, ontario, canada",22,-79.461256,44.059187,"newmarket"," ontario"," canada"
"808",808,"newnan, georgia, usa",22,-84.7996573,33.3806716,"newnan"," georgia"," usa"
"809",809,"northridge, california, usa",22,-118.530123,34.2381251,"northridge"," california"," usa"
"810",810,"palmdale, california, usa",22,-118.1164613,34.5794343,"palmdale"," california"," usa"
"811",811,"paris, france, france",22,2.3522219,48.856614,"paris"," france"," france"
"812",812,"portsmouth, new hampshire, usa",22,-70.7625532,43.0717552,"portsmouth"," new hampshire"," usa"
"813",813,"provo, utah, usa",22,-111.6585337,40.2338438,"provo"," utah"," usa"
"814",814,"pune, maharashtra, india",22,73.8567437,18.5204303,"pune"," maharashtra"," india"
"815",815,"rostock, mecklenburg-vorpommern, germany",22,12.0991466,54.0924406,"rostock"," mecklenburg-vorpommern"," germany"
"816",816,"rotterdam, zuid holland, netherlands",22,4.4777325,51.9244201,"rotterdam"," zuid holland"," netherlands"
"817",817,"san marcos, texas, usa",22,-97.9413941,29.8832749,"san marcos"," texas"," usa"
"818",818,"san pedro, california, usa",22,-118.2922461,33.7360619,"san pedro"," california"," usa"
"819",819,"saratoga, california, usa",22,-122.0230146,37.2638324,"saratoga"," california"," usa"
"820",820,"sevilla, andalucía, spain",22,-0.1277583,51.5073509,"sevilla"," andalucía"," spain"
"821",821,"sidney, british columbia, canada",22,-123.399005,48.6502411,"sidney"," british columbia"," canada"
"822",822,"tauranga, bay of plenty, new zealand",22,176.1651295,-37.6877975,"tauranga"," bay of plenty"," new zealand"
"823",823,"webster, new york, usa",22,-77.4299939,43.2122851,"webster"," new york"," usa"
"824",824,"williamsburg, virginia, usa",22,-76.7074571,37.2707022,"williamsburg"," virginia"," usa"
"825",825,"winter springs, florida, usa",22,-81.3081226,28.6988853,"winter springs"," florida"," usa"
"826",826,"woodland hills, california, usa",22,-118.6089752,34.165357,"woodland hills"," california"," usa"
"827",827,"amherst, massachusetts, usa",21,-72.5198537,42.3732216,"amherst"," massachusetts"," usa"
"828",828,"arlington, massachusetts, usa",21,-71.1564729,42.4153925,"arlington"," massachusetts"," usa"
"829",829,"bratislava, n/a, slovakia",21,17.1077477,48.1485965,"bratislava"," n/a"," slovakia"
"830",830,"carmel, indiana, usa",21,-86.1180435,39.978371,"carmel"," indiana"," usa"
"831",831,"catania, sicilia, italy",21,15.0830304,37.5078772,"catania"," sicilia"," italy"
"832",832,"chesterfield, missouri, usa",21,-90.5770675,38.6631083,"chesterfield"," missouri"," usa"
"833",833,"concord, north carolina, usa",21,-80.579511,35.4087517,"concord"," north carolina"," usa"
"834",834,"doylestown, pennsylvania, usa",21,-75.1298939,40.3101063,"doylestown"," pennsylvania"," usa"
"835",835,"duluth, georgia, usa",21,-84.1446376,34.0028786,"duluth"," georgia"," usa"
"836",836,"elche, alicante, spain",21,-0.7125608,38.2699329,"elche"," alicante"," spain"
"837",837,"erfurt, thueringen, germany",21,11.0298799,50.9847679,"erfurt"," thueringen"," germany"
"838",838,"flensburg, schleswig-holstein, germany",21,9.4469964,54.7937431,"flensburg"," schleswig-holstein"," germany"
"839",839,"frisco, texas, usa",21,-96.8236116,33.1506744,"frisco"," texas"," usa"
"840",840,"hendersonville, north carolina, usa",21,-82.4609528,35.3187279,"hendersonville"," north carolina"," usa"
"841",841,"johnson city, tennessee, usa",21,-82.3534727,36.3134397,"johnson city"," tennessee"," usa"
"842",842,"kent, ohio, usa",21,-81.3578859,41.1536674,"kent"," ohio"," usa"
"843",843,"lake charles, louisiana, usa",21,-93.2173758,30.2265949,"lake charles"," louisiana"," usa"
"844",844,"lake mary, florida, usa",21,-81.3178446,28.7588833,"lake mary"," florida"," usa"
"845",845,"lakewood, ohio, usa",21,-81.7981908,41.4819932,"lakewood"," ohio"," usa"
"846",846,"lancaster, england, united kingdom",21,-2.8007399,54.046575,"lancaster"," england"," united kingdom"
"847",847,"livonia, michigan, usa",21,-83.3527097,42.36837,"livonia"," michigan"," usa"
"848",848,"malaga, malaga, spain",21,-4.4212655,36.721261,"malaga"," malaga"," spain"
"849",849,"manchester, connecticut, usa",21,-72.5215009,41.7759301,"manchester"," connecticut"," usa"
"850",850,"mcminnville, oregon, usa",21,-123.1987163,45.2101162,"mcminnville"," oregon"," usa"
"851",851,"mesquite, texas, usa",21,-96.5991593,32.7667955,"mesquite"," texas"," usa"
"852",852,"middletown, connecticut, usa",21,-72.6506488,41.5623209,"middletown"," connecticut"," usa"
"853",853,"moreno valley, california, usa",21,-117.2296717,33.9424658,"moreno valley"," california"," usa"
"854",854,"new brunswick, new jersey, usa",21,-74.4518188,40.4862157,"new brunswick"," new jersey"," usa"
"855",855,"newark, california, usa",21,-122.0402399,37.5296593,"newark"," california"," usa"
"856",856,"peoria, arizona, usa",21,-112.2373779,33.5805955,"peoria"," arizona"," usa"
"857",857,"racine, wisconsin, usa",21,-87.7828523,42.7261309,"racine"," wisconsin"," usa"
"858",858,"reggio emilia, emilia romagna, italy",21,10.6296859,44.6989932,"reggio emilia"," emilia romagna"," italy"
"859",859,"rennes, bretagne, france",21,-1.6777926,48.117266,"rennes"," bretagne"," france"
"860",860,"rome, italy, italy",21,12.4963655,41.9027835,"rome"," italy"," italy"
"861",861,"san bernardino, california, usa",21,-117.2897652,34.1083449,"san bernardino"," california"," usa"
"862",862,"swindon, england, united kingdom",21,-1.7797176,51.5557739,"swindon"," england"," united kingdom"
"863",863,"terre haute, indiana, usa",21,-87.4139092,39.4667034,"terre haute"," indiana"," usa"
"864",864,"vallejo, california, usa",21,-122.2566367,38.1040864,"vallejo"," california"," usa"
"865",865,"vigo, galicia, spain",21,-8.7207268,42.2405989,"vigo"," galicia"," spain"
"866",866,"warwick, rhode island, usa",21,-71.4161671,41.7001009,"warwick"," rhode island"," usa"
"867",867,"watertown, massachusetts, usa",21,-71.1828321,42.3709299,"watertown"," massachusetts"," usa"
"868",868,"west bend, wisconsin, usa",21,-88.1834277,43.4252776,"west bend"," wisconsin"," usa"
"869",869,"winchester, virginia, usa",21,-78.1633341,39.1856597,"winchester"," virginia"," usa"
"870",870,"yellowknife, northwest territories, canada",21,-114.3717886,62.4539717,"yellowknife"," northwest territories"," canada"
"871",871,"yuma, arizona, usa",21,-114.6276916,32.6926512,"yuma"," arizona"," usa"
"872",872,"aveiro, aveiro, portugal",20,-8.6537539,40.6405055,"aveiro"," aveiro"," portugal"
"873",873,"beloit, wisconsin, usa",20,-89.0317765,42.5083482,"beloit"," wisconsin"," usa"
"874",874,"brandon, florida, usa",20,-82.2859247,27.937801,"brandon"," florida"," usa"
"875",875,"claremont, california, usa",20,-117.7197785,34.0966764,"claremont"," california"," usa"
"876",876,"clarksville, tennessee, usa",20,-87.3594528,36.5297706,"clarksville"," tennessee"," usa"
"877",877,"cordoba, cordoba, argentina",20,-64.1887761,-31.4200833,"cordoba"," cordoba"," argentina"
"878",878,"dearborn, michigan, usa",20,-83.1763145,42.3222599,"dearborn"," michigan"," usa"
"879",879,"delray beach, florida, usa",20,-80.0728201,26.4614625,"delray beach"," florida"," usa"
"880",880,"dover, new hampshire, usa",20,-70.8736698,43.1978624,"dover"," new hampshire"," usa"
"881",881,"el cerrito, california, usa",20,-122.310765,37.9161326,"el cerrito"," california"," usa"
"882",882,"essex, england, united kingdom",20,0.4690888,51.7343313,"essex"," england"," united kingdom"
"883",883,"fenton, missouri, usa",20,-90.4429881,38.5126456,"fenton"," missouri"," usa"
"884",884,"forest grove, oregon, usa",20,-123.1106631,45.5198364,"forest grove"," oregon"," usa"
"885",885,"guildford, england, united kingdom",20,-0.570409,51.23622,"guildford"," england"," united kingdom"
"886",886,"innsbruck, tirol, austria",20,11.4041024,47.2692124,"innsbruck"," tirol"," austria"
"887",887,"konstanz, baden-wuerttemberg, germany",20,9.1732384,47.6779496,"konstanz"," baden-wuerttemberg"," germany"
"888",888,"longwood, florida, usa",20,-81.3384011,28.7030519,"longwood"," florida"," usa"
"889",889,"los gatos, california, usa",20,-121.9623751,37.2358078,"los gatos"," california"," usa"
"890",890,"lund, skåne, sweden",20,-0.1277583,51.5073509,"lund"," skåne"," sweden"
"891",891,"lyon, rhône-alpes, france",20,-0.1277583,51.5073509,"lyon"," rhône-alpes"," france"
"892",892,"milano, ,",20,9.1859243,45.4654219,"milano"," ",""
"893",893,"milano, italy, italy",20,9.1859243,45.4654219,"milano"," italy"," italy"
"894",894,"morristown, new jersey, usa",20,-74.4815438,40.7967667,"morristown"," new jersey"," usa"
"895",895,"northampton, massachusetts, usa",20,-72.6412013,42.3250896,"northampton"," massachusetts"," usa"
"896",896,"orange park, florida, usa",20,-81.706484,30.1660736,"orange park"," florida"," usa"
"897",897,"paderborn, nordrhein-westfalen, germany",20,8.7575093,51.7189205,"paderborn"," nordrhein-westfalen"," germany"
"898",898,"palatine, illinois, usa",20,-88.03424,42.1103041,"palatine"," illinois"," usa"
"899",899,"pembroke pines, florida, usa",20,-80.2962555,26.007765,"pembroke pines"," florida"," usa"
"900",900,"piacenza, emilia romagna, italy",20,9.6929845,45.0526206,"piacenza"," emilia romagna"," italy"
"901",901,"portsmouth, virginia, usa",20,-76.2982742,36.8354258,"portsmouth"," virginia"," usa"
"902",902,"prato, toscana, italy",20,11.102228,43.8777049,"prato"," toscana"," italy"
"903",903,"quebec, quebec, canada",20,-71.2079809,46.8138783,"quebec"," quebec"," canada"
"904",904,"saarbrücken, saarland, germany",20,-0.1277583,51.5073509,"saarbrücken"," saarland"," germany"
"905",905,"san luis obispo, california, usa",20,-120.6596156,35.2827524,"san luis obispo"," california"," usa"
"906",906,"san marcos, california, usa",20,-117.1661449,33.1433723,"san marcos"," california"," usa"
"907",907,"santiago, region metropolitana, chile",20,-70.6504492,-33.4378305,"santiago"," region metropolitana"," chile"
"908",908,"shawnee, kansas, usa",20,-94.7151865,39.0228485,"shawnee"," kansas"," usa"
"909",909,"sheffield, south yorkshire, united kingdom",20,-1.470085,53.381129,"sheffield"," south yorkshire"," united kingdom"
"910",910,"snohomish, washington, usa",20,-122.0981848,47.9128756,"snohomish"," washington"," usa"
"911",911,"thornhill, ontario, canada",20,-79.4591378,43.8079675,"thornhill"," ontario"," canada"
"912",912,"ulm, baden-wuerttemberg, germany",20,9.9876076,48.4010822,"ulm"," baden-wuerttemberg"," germany"
"913",913,"valladolid, castilla y león, spain",20,-0.1277583,51.5073509,"valladolid"," castilla y león"," spain"
"914",914,"van nuys, california, usa",20,-118.451357,34.1898566,"van nuys"," california"," usa"
"915",915,"vancouver, ,",20,-122.6716063,45.6318397,"vancouver"," ",""
"916",916,"venezia, veneto, italy",20,12.3155151,45.4408474,"venezia"," veneto"," italy"
"917",917,"vero beach, florida, usa",20,-80.3972736,27.6386434,"vero beach"," florida"," usa"
"918",918,"waco, texas, usa",20,-97.1466695,31.549333,"waco"," texas"," usa"
"919",919,"warsaw, n/a, poland",20,21.0122287,52.2296756,"warsaw"," n/a"," poland"
"920",920,"west allis, wisconsin, usa",20,-88.0070315,43.0166806,"west allis"," wisconsin"," usa"
"921",921,"west linn, oregon, usa",20,-122.6123141,45.3656761,"west linn"," oregon"," usa"
"922",922,"wolverhampton, england, united kingdom",20,-2.12882,52.586973,"wolverhampton"," england"," united kingdom"
"923",923,"abilene, texas, usa",19,-99.7331439,32.4487364,"abilene"," texas"," usa"
"924",924,"altamonte springs, florida, usa",19,-81.3656242,28.6611089,"altamonte springs"," florida"," usa"
"925",925,"annandale, virginia, usa",19,-77.1963703,38.8303905,"annandale"," virginia"," usa"
"926",926,"arcata, california, usa",19,-124.0828396,40.8665166,"arcata"," california"," usa"
"927",927,"ashburn, virginia, usa",19,-77.4874416,39.0437567,"ashburn"," virginia"," usa"
"928",928,"auburn, washington, usa",19,-122.2284532,47.3073228,"auburn"," washington"," usa"
"929",929,"barcelona, españa, spain",19,-0.1277583,51.5073509,"barcelona"," españa"," spain"
"930",930,"belgrade, serbia, yugoslavia",19,20.4418578,44.7891785,"belgrade"," serbia"," yugoslavia"
"931",931,"belleville, illinois, usa",19,-89.9839935,38.5200504,"belleville"," illinois"," usa"
"932",932,"boynton beach, florida, usa",19,-80.0905465,26.5317866,"boynton beach"," florida"," usa"
"933",933,"broken arrow, oklahoma, usa",19,-95.7974526,36.060949,"broken arrow"," oklahoma"," usa"
"934",934,"brussels, brussels, belgium",19,4.3517103,50.8503396,"brussels"," brussels"," belgium"
"935",935,"córdoba, córdoba, argentina",19,-0.1277583,51.5073509,"córdoba"," córdoba"," argentina"
"936",936,"cairns, queensland, australia",19,145.7780548,-16.9185514,"cairns"," queensland"," australia"
"937",937,"canton, michigan, usa",19,-83.482116,42.3086444,"canton"," michigan"," usa"
"938",938,"citrus heights, california, usa",19,-121.2810611,38.7071247,"citrus heights"," california"," usa"
"939",939,"clinton township, michigan, usa",19,-82.9195514,42.5868882,"clinton township"," michigan"," usa"
"940",940,"corona, california, usa",19,-117.5664384,33.8752935,"corona"," california"," usa"
"941",941,"culver city, california, usa",19,-118.3964665,34.0211224,"culver city"," california"," usa"
"942",942,"cypress, texas, usa",19,-95.6937856,29.9716905,"cypress"," texas"," usa"
"943",943,"dublin, ohio, usa",19,-83.1140771,40.0992294,"dublin"," ohio"," usa"
"944",944,"dundee, scotland, united kingdom",19,-2.970721,56.462018,"dundee"," scotland"," united kingdom"
"945",945,"espoo, uusimaa, finland",19,24.6559001,60.2054911,"espoo"," uusimaa"," finland"
"946",946,"fairfield, connecticut, usa",19,-73.2612615,41.1408363,"fairfield"," connecticut"," usa"
"947",947,"florence, alabama, usa",19,-87.677251,34.79981,"florence"," alabama"," usa"
"948",948,"guangzhou, guangdong, china",19,113.264385,23.12911,"guangzhou"," guangdong"," china"
"949",949,"hagerstown, maryland, usa",19,-77.7199932,39.6417629,"hagerstown"," maryland"," usa"
"950",950,"hamburg, n/a, germany",19,9.9936818,53.5510846,"hamburg"," n/a"," germany"
"951",951,"hamilton, n/a, new zealand",19,175.279253,-37.7870012,"hamilton"," n/a"," new zealand"
"952",952,"ipoh, perak, malaysia",19,101.090106,4.597479,"ipoh"," perak"," malaysia"
"953",953,"kent, england, united kingdom",19,0.5217254,51.2787075,"kent"," england"," united kingdom"
"954",954,"lexington, south carolina, usa",19,-81.2362107,33.9815369,"lexington"," south carolina"," usa"
"955",955,"lille, nord, france",19,3.057256,50.62925,"lille"," nord"," france"
"956",956,"livorno, toscana, italy",19,10.3105674,43.548473,"livorno"," toscana"," italy"
"957",957,"lowell, massachusetts, usa",19,-71.3161718,42.6334247,"lowell"," massachusetts"," usa"
"958",958,"lugano, ticino, switzerland",19,8.951052,46.0036778,"lugano"," ticino"," switzerland"
"959",959,"madison, alabama, usa",19,-86.7483318,34.6992579,"madison"," alabama"," usa"
"960",960,"magdeburg, sachsen-anhalt, germany",19,11.6276237,52.1205333,"magdeburg"," sachsen-anhalt"," germany"
"961",961,"malmö, skåne, sweden",19,-0.1277583,51.5073509,"malmö"," skåne"," sweden"
"962",962,"milford, connecticut, usa",19,-73.064036,41.2306979,"milford"," connecticut"," usa"
"963",963,"morgantown, west virginia, usa",19,-79.9558968,39.629526,"morgantown"," west virginia"," usa"
"964",964,"moscow, n/a, russia",19,37.6173,55.755826,"moscow"," n/a"," russia"
"965",965,"muenchen, bayern, germany",19,11.5819806,48.1351253,"muenchen"," bayern"," germany"
"966",966,"new plymouth, taranaki, new zealand",19,174.0752278,-39.0556253,"new plymouth"," taranaki"," new zealand"
"967",967,"northfield, minnesota, usa",19,-93.161604,44.4582983,"northfield"," minnesota"," usa"
"968",968,"ottawa, ,",19,-75.6971931,45.4215296,"ottawa"," ",""
"969",969,"phoenixville, pennsylvania, usa",19,-75.5149128,40.1303822,"phoenixville"," pennsylvania"," usa"
"970",970,"ploiesti, prahova, romania",19,26.0128616,44.936664,"ploiesti"," prahova"," romania"
"971",971,"plymouth, massachusetts, usa",19,-70.6672621,41.9584457,"plymouth"," massachusetts"," usa"
"972",972,"roseville, minnesota, usa",19,-93.1566107,45.0060767,"roseville"," minnesota"," usa"
"973",973,"sammamish, washington, usa",19,-122.0355736,47.6162683,"sammamish"," washington"," usa"
"974",974,"santiago, n/a, chile",19,-70.6504492,-33.4378305,"santiago"," n/a"," chile"
"975",975,"schaumburg, illinois, usa",19,-88.0834059,42.0333607,"schaumburg"," illinois"," usa"
"976",976,"seattle, ,",19,-122.3320708,47.6062095,"seattle"," ",""
"977",977,"st petersburg, florida, usa",19,-82.6267345,27.7518284,"st petersburg"," florida"," usa"
"978",978,"stratford, connecticut, usa",19,-73.1331651,41.1845415,"stratford"," connecticut"," usa"
"979",979,"takoma park, maryland, usa",19,-77.0074765,38.9778882,"takoma park"," maryland"," usa"
"980",980,"temecula, california, usa",19,-117.1483648,33.4936391,"temecula"," california"," usa"
"981",981,"tumwater, washington, usa",19,-122.9093063,47.0073187,"tumwater"," washington"," usa"
"982",982,"uppsala, n/a, sweden",19,17.6389267,59.8585638,"uppsala"," n/a"," sweden"
"983",983,"valencia, n/a, spain",19,-0.3762881,39.4699075,"valencia"," n/a"," spain"
"984",984,"woodinville, washington, usa",19,-122.1634582,47.7542651,"woodinville"," washington"," usa"
"985",985,"apple valley, minnesota, usa",18,-93.21772,44.7319094,"apple valley"," minnesota"," usa"
"986",986,"ballarat, victoria, australia",18,143.8502556,-37.5621587,"ballarat"," victoria"," australia"
"987",987,"bolton, england, united kingdom",18,-2.4282192,53.5768647,"bolton"," england"," united kingdom"
"988",988,"bournemouth, england, united kingdom",18,-1.880769,50.719164,"bournemouth"," england"," united kingdom"
"989",989,"bradford, england, united kingdom",18,-1.759398,53.795984,"bradford"," england"," united kingdom"
"990",990,"bridgewater, new jersey, usa",18,-74.6049061,40.5939636,"bridgewater"," new jersey"," usa"
"991",991,"burlingame, california, usa",18,-122.34809,37.5778696,"burlingame"," california"," usa"
"992",992,"cambridge, cambridgeshire, united kingdom",18,0.121817,52.205337,"cambridge"," cambridgeshire"," united kingdom"
"993",993,"cape girardeau, missouri, usa",18,-89.5181476,37.3058839,"cape girardeau"," missouri"," usa"
"994",994,"casper, wyoming, usa",18,-106.313081,42.866632,"casper"," wyoming"," usa"
"995",995,"centreville, virginia, usa",18,-77.4288769,38.8403909,"centreville"," virginia"," usa"
"996",996,"chennai, tamil nadu, india",18,80.2707184,13.0826802,"chennai"," tamil nadu"," india"
"997",997,"cheyenne, wyoming, usa",18,-104.8202462,41.1399814,"cheyenne"," wyoming"," usa"
"998",998,"council bluffs, iowa, usa",18,-95.8608333,41.2619444,"council bluffs"," iowa"," usa"
"999",999,"downers grove, illinois, usa",18,-88.0111746,41.8089191,"downers grove"," illinois"," usa"
"1000",1000,"elk grove, california, usa",18,-121.3716178,38.4087993,"elk grove"," california"," usa"
"1001",1001,"elkhart, indiana, usa",18,-85.9766671,41.6819935,"elkhart"," indiana"," usa"
"1002",1002,"fishers, indiana, usa",18,-86.01335,39.9567548,"fishers"," indiana"," usa"
"1003",1003,"ft. lauderdale, florida, usa",18,-80.1373174,26.1224386,"ft. lauderdale"," florida"," usa"
"1004",1004,"germantown, maryland, usa",18,-77.2716502,39.1731621,"germantown"," maryland"," usa"
"1005",1005,"grand junction, colorado, usa",18,-108.5506486,39.0638705,"grand junction"," colorado"," usa"
"1006",1006,"haifa, n/a, israel",18,34.989571,32.7940463,"haifa"," n/a"," israel"
"1007",1007,"hendersonville, tennessee, usa",18,-86.6199957,36.3047735,"hendersonville"," tennessee"," usa"
"1008",1008,"herndon, virginia, usa",18,-77.3860976,38.9695545,"herndon"," virginia"," usa"
"1009",1009,"hollister, california, usa",18,-121.4016021,36.8524545,"hollister"," california"," usa"
"1010",1010,"hollywood, california, usa",18,-118.3286614,34.0928092,"hollywood"," california"," usa"
"1011",1011,"issaquah, washington, usa",18,-122.0326191,47.5301011,"issaquah"," washington"," usa"
"1012",1012,"kailua, hawaii, usa",18,-157.7394444,21.4022222,"kailua"," hawaii"," usa"
"1013",1013,"krefeld, nordrhein-westfalen, germany",18,6.5853417,51.3387609,"krefeld"," nordrhein-westfalen"," germany"
"1014",1014,"kuala lumpur, federal territory, malaysia",18,101.712303,3.1569486,"kuala lumpur"," federal territory"," malaysia"
"1015",1015,"kuching, sarawak, malaysia",18,110.3785438,1.6076812,"kuching"," sarawak"," malaysia"
"1016",1016,"lake forest, california, usa",18,-117.689218,33.6469661,"lake forest"," california"," usa"
"1017",1017,"manchester, lancashire, united kingdom",18,-2.3952529,53.5107545,"manchester"," lancashire"," united kingdom"
"1018",1018,"manhattan, kansas, usa",18,-96.5716694,39.1836082,"manhattan"," kansas"," usa"
"1019",1019,"medina, ohio, usa",18,-81.8552196,41.143245,"medina"," ohio"," usa"
"1020",1020,"midlothian, virginia, usa",18,-77.6490005,37.5061069,"midlothian"," virginia"," usa"
"1021",1021,"morgan hill, california, usa",18,-121.6543901,37.1305012,"morgan hill"," california"," usa"
"1022",1022,"nelson, british columbia, canada",18,-117.2948343,49.4928119,"nelson"," british columbia"," canada"
"1023",1023,"north charleston, south carolina, usa",18,-79.9748103,32.8546197,"north charleston"," south carolina"," usa"
"1024",1024,"north pole, alaska, usa",18,-147.3494444,64.7511111,"north pole"," alaska"," usa"
"1025",1025,"ogden, utah, usa",18,-111.9738304,41.223,"ogden"," utah"," usa"
"1026",1026,"palmerston north, n/a, new zealand",18,175.6082145,-40.3523065,"palmerston north"," n/a"," new zealand"
"1027",1027,"parma, ohio, usa",18,-81.7229086,41.4047742,"parma"," ohio"," usa"
"1028",1028,"pavia, lombardia, italy",18,9.1582069,45.1847248,"pavia"," lombardia"," italy"
"1029",1029,"poughkeepsie, new york, usa",18,-73.9209701,41.7003713,"poughkeepsie"," new york"," usa"
"1030",1030,"redlands, california, usa",18,-117.1825381,34.0555693,"redlands"," california"," usa"
"1031",1031,"rock island, illinois, usa",18,-90.5787476,41.5094771,"rock island"," illinois"," usa"
"1032",1032,"rome, ,",18,12.4963655,41.9027835,"rome"," ",""
"1033",1033,"salamanca, salamanca, spain",18,-5.6635397,40.9701039,"salamanca"," salamanca"," spain"
"1034",1034,"salinas, california, usa",18,-121.6555013,36.6777372,"salinas"," california"," usa"
"1035",1035,"san jose, san jose, costa rica",18,-84.0907246,9.9280694,"san jose"," san jose"," costa rica"
"1036",1036,"santiago de compostela, galicia, spain",18,-8.5448445,42.8782132,"santiago de compostela"," galicia"," spain"
"1037",1037,"sault ste. marie, ontario, canada",18,-84.3460896,46.521858,"sault ste. marie"," ontario"," canada"
"1038",1038,"shelton, washington, usa",18,-123.1007066,47.2150945,"shelton"," washington"," usa"
"1039",1039,"shoreview, minnesota, usa",18,-93.1471667,45.0791325,"shoreview"," minnesota"," usa"
"1040",1040,"siena, toscana, italy",18,11.3307574,43.318809,"siena"," toscana"," italy"
"1041",1041,"sioux city, iowa, usa",18,-96.4003069,42.4999942,"sioux city"," iowa"," usa"
"1042",1042,"spring valley, california, usa",18,-116.998916,32.744774,"spring valley"," california"," usa"
"1043",1043,"springfield, massachusetts, usa",18,-72.589811,42.1014831,"springfield"," massachusetts"," usa"
"1044",1044,"sterling heights, michigan, usa",18,-83.0302033,42.5803122,"sterling heights"," michigan"," usa"
"1045",1045,"sumter, south carolina, usa",18,-80.3414693,33.9204354,"sumter"," south carolina"," usa"
"1046",1046,"teaneck, new jersey, usa",18,-74.0116536,40.8932469,"teaneck"," new jersey"," usa"
"1047",1047,"varese, lombardia, italy",18,8.8250576,45.8205989,"varese"," lombardia"," italy"
"1048",1048,"warren, michigan, usa",18,-83.0146526,42.5144566,"warren"," michigan"," usa"
"1049",1049,"welland, ontario, canada",18,-79.2482555,42.9921579,"welland"," ontario"," canada"
"1050",1050,"west hartford, connecticut, usa",18,-72.7420151,41.7620842,"west hartford"," connecticut"," usa"
"1051",1051,"westland, michigan, usa",18,-83.400211,42.324204,"westland"," michigan"," usa"
"1052",1052,"westminster, colorado, usa",18,-105.0372046,39.8366528,"westminster"," colorado"," usa"
"1053",1053,"whitby, ontario, canada",18,-78.9429329,43.8975446,"whitby"," ontario"," canada"
"1054",1054,"zurich, n/a, switzerland",18,8.541694,47.3768866,"zurich"," n/a"," switzerland"
"1055",1055,"altoona, pennsylvania, usa",17,-78.3947359,40.5186809,"altoona"," pennsylvania"," usa"
"1056",1056,"anacortes, washington, usa",17,-122.6126718,48.5126045,"anacortes"," washington"," usa"
"1057",1057,"athens, attiki, greece",17,23.7275388,37.9838096,"athens"," attiki"," greece"
"1058",1058,"bedford, texas, usa",17,-97.1430671,32.844017,"bedford"," texas"," usa"
"1059",1059,"bloomfield, new jersey, usa",17,-74.1854209,40.8067546,"bloomfield"," new jersey"," usa"
"1060",1060,"bowling green, kentucky, usa",17,-86.4808043,36.9685219,"bowling green"," kentucky"," usa"
"1061",1061,"broomfield, colorado, usa",17,-105.0866504,39.9205411,"broomfield"," colorado"," usa"
"1062",1062,"burke, virginia, usa",17,-77.2716505,38.7934466,"burke"," virginia"," usa"
"1063",1063,"cairo, cairo, egypt",17,31.2357116,30.0444196,"cairo"," cairo"," egypt"
"1064",1064,"camp hill, pennsylvania, usa",17,-76.9199742,40.2398118,"camp hill"," pennsylvania"," usa"
"1065",1065,"castro valley, california, usa",17,-122.0863522,37.6940973,"castro valley"," california"," usa"
"1066",1066,"cheltenham, england, united kingdom",17,-2.0782533,51.8993855,"cheltenham"," england"," united kingdom"
"1067",1067,"clarkston, michigan, usa",17,-83.4192941,42.7351196,"clarkston"," michigan"," usa"
"1068",1068,"coffs harbour, new south wales, australia",17,153.1093922,-30.298612,"coffs harbour"," new south wales"," australia"
"1069",1069,"columbus, georgia, usa",17,-84.9877094,32.4609764,"columbus"," georgia"," usa"
"1070",1070,"courtenay, british columbia, canada",17,-124.9904493,49.6841391,"courtenay"," british columbia"," canada"
"1071",1071,"crystal lake, illinois, usa",17,-88.3161965,42.2411344,"crystal lake"," illinois"," usa"
"1072",1072,"danville, california, usa",17,-121.9999606,37.8215929,"danville"," california"," usa"
"1073",1073,"davenport, iowa, usa",17,-90.5776367,41.5236437,"davenport"," iowa"," usa"
"1074",1074,"fall river, massachusetts, usa",17,-71.1550451,41.7014912,"fall river"," massachusetts"," usa"
"1075",1075,"gloucester, england, united kingdom",17,-2.238156,51.8642449,"gloucester"," england"," united kingdom"
"1076",1076,"grande prairie, alberta, canada",17,-118.7986152,55.1699396,"grande prairie"," alberta"," canada"
"1077",1077,"guadalajara, jalisco, mexico",17,-103.3496092,20.6596988,"guadalajara"," jalisco"," mexico"
"1078",1078,"hemet, california, usa",17,-116.9719684,33.7475203,"hemet"," california"," usa"
"1079",1079,"holland, michigan, usa",17,-86.1089301,42.7875235,"holland"," michigan"," usa"
"1080",1080,"houma, louisiana, usa",17,-90.7195348,29.5957696,"houma"," louisiana"," usa"
"1081",1081,"huntington, west virginia, usa",17,-82.445154,38.4192496,"huntington"," west virginia"," usa"
"1082",1082,"istanbul, istanbul, turkey",17,28.9783589,41.0082376,"istanbul"," istanbul"," turkey"
"1083",1083,"karachi, n/a, pakistan",17,67.0099388,24.8614622,"karachi"," n/a"," pakistan"
"1084",1084,"kennesaw, georgia, usa",17,-84.6154897,34.0234337,"kennesaw"," georgia"," usa"
"1085",1085,"kingwood, texas, usa",17,-95.1902986,30.0575359,"kingwood"," texas"," usa"
"1086",1086,"kuala lumpur, wilayah persekutuan, malaysia",17,101.712303,3.1569486,"kuala lumpur"," wilayah persekutuan"," malaysia"
"1087",1087,"lagos, lagos, nigeria",17,3.3792057,6.5243793,"lagos"," lagos"," nigeria"
"1088",1088,"lakewood, washington, usa",17,-122.518458,47.1717649,"lakewood"," washington"," usa"
"1089",1089,"launceston, tasmania, australia",17,147.1440875,-41.4332215,"launceston"," tasmania"," australia"
"1090",1090,"league city, texas, usa",17,-95.0949303,29.5074538,"league city"," texas"," usa"
"1091",1091,"lewisville, texas, usa",17,-96.994174,33.046233,"lewisville"," texas"," usa"
"1092",1092,"lexington, massachusetts, usa",17,-71.2289641,42.4430372,"lexington"," massachusetts"," usa"
"1093",1093,"liverpool, merseyside, united kingdom",17,-2.9915726,53.4083714,"liverpool"," merseyside"," united kingdom"
"1094",1094,"los altos, california, usa",17,-122.1141298,37.3852183,"los altos"," california"," usa"
"1095",1095,"mönchengladbach, nordrhein-westfalen, germany",17,-0.1277583,51.5073509,"mönchengladbach"," nordrhein-westfalen"," germany"
"1096",1096,"malden, massachusetts, usa",17,-71.066163,42.4250964,"malden"," massachusetts"," usa"
"1097",1097,"mankato, minnesota, usa",17,-93.9993996,44.1635775,"mankato"," minnesota"," usa"
"1098",1098,"meriden, connecticut, usa",17,-72.8070435,41.5381535,"meriden"," connecticut"," usa"
"1099",1099,"midland, texas, usa",17,-102.0779146,31.9973456,"midland"," texas"," usa"
"1100",1100,"milton, ontario, canada",17,-79.8774042,43.5182991,"milton"," ontario"," canada"
"1101",1101,"minnetonka, minnesota, usa",17,-93.4687489,44.9211836,"minnetonka"," minnesota"," usa"
"1102",1102,"mishawaka, indiana, usa",17,-86.1586156,41.6619927,"mishawaka"," indiana"," usa"
"1103",1103,"monza, lombardia, italy",17,9.2744485,45.5845001,"monza"," lombardia"," italy"
"1104",1104,"newport, rhode island, usa",17,-71.3128285,41.4901024,"newport"," rhode island"," usa"
"1105",1105,"north bay, ontario, canada",17,-79.4608204,46.3091152,"north bay"," ontario"," canada"
"1106",1106,"palm beach gardens, florida, usa",17,-80.1386547,26.8233946,"palm beach gardens"," florida"," usa"
"1107",1107,"parksville, british columbia, canada",17,-124.3136412,49.3193375,"parksville"," british columbia"," canada"
"1108",1108,"pasadena, texas, usa",17,-95.2091006,29.6910625,"pasadena"," texas"," usa"
"1109",1109,"plainfield, illinois, usa",17,-88.2120315,41.632223,"plainfield"," illinois"," usa"
"1110",1110,"plantation, florida, usa",17,-80.2331036,26.1275862,"plantation"," florida"," usa"
"1111",1111,"pleasant hill, california, usa",17,-122.0607963,37.9479786,"pleasant hill"," california"," usa"
"1112",1112,"pompano beach, florida, usa",17,-80.1247667,26.2378597,"pompano beach"," florida"," usa"
"1113",1113,"quezon city, n/a, philippines",17,121.0437003,14.6760413,"quezon city"," n/a"," philippines"
"1114",1114,"quincy, massachusetts, usa",17,-71.0022705,42.2528772,"quincy"," massachusetts"," usa"
"1115",1115,"rochester hills, michigan, usa",17,-83.1499322,42.6583661,"rochester hills"," michigan"," usa"
"1116",1116,"rock hill, south carolina, usa",17,-81.0250784,34.9248667,"rock hill"," south carolina"," usa"
"1117",1117,"saint charles, missouri, usa",17,-90.4974359,38.7881062,"saint charles"," missouri"," usa"
"1118",1118,"san juan, puerto rico, usa",17,-66.1057217,18.4663338,"san juan"," puerto rico"," usa"
"1119",1119,"san ramon, california, usa",17,-121.9780153,37.7799273,"san ramon"," california"," usa"
"1120",1120,"sebastopol, california, usa",17,-122.8238806,38.4021359,"sebastopol"," california"," usa"
"1121",1121,"shoreline, washington, usa",17,-122.3456972,47.7559659,"shoreline"," washington"," usa"
"1122",1122,"skokie, illinois, usa",17,-87.7416246,42.0324025,"skokie"," illinois"," usa"
"1123",1123,"snellville, georgia, usa",17,-84.0199108,33.857328,"snellville"," georgia"," usa"
"1124",1124,"st. augustine, florida, usa",17,-81.3124341,29.9012437,"st. augustine"," florida"," usa"
"1125",1125,"stratford, ontario, canada",17,-80.9822286,43.3700007,"stratford"," ontario"," canada"
"1126",1126,"subang jaya, selangor, malaysia",17,101.5851192,3.0567333,"subang jaya"," selangor"," malaysia"
"1127",1127,"suffolk, virginia, usa",17,-76.5835621,36.7282054,"suffolk"," virginia"," usa"
"1128",1128,"tel aviv, n/a, israel",17,34.7817676,32.0852999,"tel aviv"," n/a"," israel"
"1129",1129,"trento, trentino alto adige, italy",17,11.1217486,46.0747793,"trento"," trentino alto adige"," italy"
"1130",1130,"treviso, veneto, italy",17,12.2430437,45.6668893,"treviso"," veneto"," italy"
"1131",1131,"tualatin, oregon, usa",17,-122.7639851,45.3840077,"tualatin"," oregon"," usa"
"1132",1132,"turku, varsinais-suomi, finland",17,22.2666303,60.4518126,"turku"," varsinais-suomi"," finland"
"1133",1133,"west covina, california, usa",17,-117.9389526,34.0686208,"west covina"," california"," usa"
"1134",1134,"west lafayette, indiana, usa",17,-86.9080655,40.4258686,"west lafayette"," indiana"," usa"
"1135",1135,"wheaton, illinois, usa",17,-88.1070127,41.8661403,"wheaton"," illinois"," usa"
"1136",1136,"zagreb, n/a, croatia",17,15.981919,45.8150108,"zagreb"," n/a"," croatia"
"1137",1137,"albury, new south wales, australia",16,146.9135418,-36.0737293,"albury"," new south wales"," australia"
"1138",1138,"apple valley, california, usa",16,-117.1858759,34.5008311,"apple valley"," california"," usa"
"1139",1139,"aptos, california, usa",16,-121.8994016,36.9771729,"aptos"," california"," usa"
"1140",1140,"ballwin, missouri, usa",16,-90.5462339,38.5950532,"ballwin"," missouri"," usa"
"1141",1141,"barcelona, \n/a\, spain",16,2.1734035,41.3850639,"barcelona"," \n/a\"," spain"
"1142",1142,"bathurst, new south wales, australia",16,149.5775008,-33.4192822,"bathurst"," new south wales"," australia"
"1143",1143,"brentwood, tennessee, usa",16,-86.7827772,36.0331164,"brentwood"," tennessee"," usa"
"1144",1144,"brighton, east sussex, united kingdom",16,-0.137163,50.82253,"brighton"," east sussex"," united kingdom"
"1145",1145,"budapest, n/a, hungary",16,19.040235,47.497912,"budapest"," n/a"," hungary"
"1146",1146,"centennial, colorado, usa",16,-104.8771726,39.5807452,"centennial"," colorado"," usa"
"1147",1147,"chillicothe, ohio, usa",16,-82.9824019,39.3331197,"chillicothe"," ohio"," usa"
"1148",1148,"croydon, victoria, australia",16,145.281,-37.796,"croydon"," victoria"," australia"
"1149",1149,"cumberland, maryland, usa",16,-78.7625185,39.6528654,"cumberland"," maryland"," usa"
"1150",1150,"cuneo, piemonte, italy",16,7.5426711,44.3844766,"cuneo"," piemonte"," italy"
"1151",1151,"den haag, zuid-holland, netherlands",16,4.3006999,52.0704978,"den haag"," zuid-holland"," netherlands"
"1152",1152,"deventer, overijssel, netherlands",16,6.1552165,52.2660751,"deventer"," overijssel"," netherlands"
"1153",1153,"downingtown, pennsylvania, usa",16,-75.7032742,40.0064958,"downingtown"," pennsylvania"," usa"
"1154",1154,"englewood, colorado, usa",16,-104.9877597,39.6477653,"englewood"," colorado"," usa"
"1155",1155,"etobicoke, ontario, canada",16,-79.5131983,43.6204946,"etobicoke"," ontario"," canada"
"1156",1156,"ferrara, emilia romagna, italy",16,11.619787,44.8381237,"ferrara"," emilia romagna"," italy"
"1157",1157,"golden, colorado, usa",16,-105.2210997,39.755543,"golden"," colorado"," usa"
"1158",1158,"harrogate, england, united kingdom",16,-1.541812,53.99212,"harrogate"," england"," united kingdom"
"1159",1159,"haverhill, massachusetts, usa",16,-71.0772796,42.7762015,"haverhill"," massachusetts"," usa"
"1160",1160,"homer, alaska, usa",16,-151.5483333,59.6425,"homer"," alaska"," usa"
"1161",1161,"koeln, nordrhein-westfalen, germany",16,6.9602786,50.937531,"koeln"," nordrhein-westfalen"," germany"
"1162",1162,"lakeville, minnesota, usa",16,-93.24272,44.6496868,"lakeville"," minnesota"," usa"
"1163",1163,"leicester, leicestershire, united kingdom",16,-1.1397592,52.6368778,"leicester"," leicestershire"," united kingdom"
"1164",1164,"lenexa, kansas, usa",16,-94.7335709,38.9536174,"lenexa"," kansas"," usa"
"1165",1165,"leverkusen, nordrhein-westfalen, germany",16,7.0192196,51.0459248,"leverkusen"," nordrhein-westfalen"," germany"
"1166",1166,"lititz, pennsylvania, usa",16,-76.3069014,40.1573169,"lititz"," pennsylvania"," usa"
"1167",1167,"lyon, n/a, france",16,4.835659,45.764043,"lyon"," n/a"," france"
"1168",1168,"madrid, maine, spain",16,-70.4620115,44.8645015,"madrid"," maine"," spain"
"1169",1169,"maple grove, minnesota, usa",16,-93.4557877,45.0724642,"maple grove"," minnesota"," usa"
"1170",1170,"marina del rey, california, usa",16,-118.4517449,33.9802893,"marina del rey"," california"," usa"
"1171",1171,"martinez, california, usa",16,-122.1341321,38.0193657,"martinez"," california"," usa"
"1172",1172,"marysville, washington, usa",16,-122.1770818,48.0517637,"marysville"," washington"," usa"
"1173",1173,"mcallen, texas, usa",16,-98.2300124,26.2034071,"mcallen"," texas"," usa"
"1174",1174,"mechanicsburg, pennsylvania, usa",16,-77.0085876,40.2142565,"mechanicsburg"," pennsylvania"," usa"
"1175",1175,"merritt island, florida, usa",16,-80.6659842,28.3180688,"merritt island"," florida"," usa"
"1176",1176,"monterey, california, usa",16,-121.8946761,36.6002378,"monterey"," california"," usa"
"1177",1177,"mumbai, n/a, india",16,72.8776559,19.0759837,"mumbai"," n/a"," india"
"1178",1178,"new delhi, delhi, india",16,77.2090212,28.6139391,"new delhi"," delhi"," india"
"1179",1179,"newcastle, england, united kingdom",16,-1.61778,54.978252,"newcastle"," england"," united kingdom"
"1180",1180,"nottingham, nottinghamshire, united kingdom",16,-1.1581086,52.9547832,"nottingham"," nottinghamshire"," united kingdom"
"1181",1181,"oswego, new york, usa",16,-76.5104973,43.4553461,"oswego"," new york"," usa"
"1182",1182,"oxford, oxfordshire, united kingdom",16,-1.2577263,51.7520209,"oxford"," oxfordshire"," united kingdom"
"1183",1183,"palm bay, florida, usa",16,-80.5886646,28.0344621,"palm bay"," florida"," usa"
"1184",1184,"palm harbor, florida, usa",16,-82.7637127,28.0780718,"palm harbor"," florida"," usa"
"1185",1185,"portland, ,",16,-122.6764816,45.5230622,"portland"," ",""
"1186",1186,"potsdam, brandenburg, germany",16,13.0644729,52.3905689,"potsdam"," brandenburg"," germany"
"1187",1187,"princeton, new jersey, usa",16,-74.6672226,40.3572976,"princeton"," new jersey"," usa"
"1188",1188,"richfield, minnesota, usa",16,-93.2830021,44.8832982,"richfield"," minnesota"," usa"
"1189",1189,"rome, georgia, usa",16,-85.1646726,34.257038,"rome"," georgia"," usa"
"1190",1190,"rome, n/a, italy",16,12.4963655,41.9027835,"rome"," n/a"," italy"
"1191",1191,"rome, rome, italy",16,12.4963655,41.9027835,"rome"," rome"," italy"
"1192",1192,"sedalia, missouri, usa",16,-93.2282613,38.7044609,"sedalia"," missouri"," usa"
"1193",1193,"smyrna, georgia, usa",16,-84.5143761,33.8839926,"smyrna"," georgia"," usa"
"1194",1194,"sofia, n/a, bulgaria",16,23.3218675,42.6977082,"sofia"," n/a"," bulgaria"
"1195",1195,"southampton, hampshire, united kingdom",16,-1.4043509,50.9097004,"southampton"," hampshire"," united kingdom"
"1196",1196,"spartanburg, south carolina, usa",16,-81.9320482,34.9495672,"spartanburg"," south carolina"," usa"
"1197",1197,"studio city, california, usa",16,-118.3870991,34.1395597,"studio city"," california"," usa"
"1198",1198,"tomball, texas, usa",16,-95.6160549,30.0971621,"tomball"," texas"," usa"
"1199",1199,"utrecht, n/a, netherlands",16,5.1214201,52.0907374,"utrecht"," n/a"," netherlands"
"1200",1200,"wasilla, alaska, usa",16,-149.4394444,61.5813889,"wasilla"," alaska"," usa"
"1201",1201,"watford, england, united kingdom",16,-0.39032,51.656489,"watford"," england"," united kingdom"
"1202",1202,"webster groves, missouri, usa",16,-90.3573389,38.5925524,"webster groves"," missouri"," usa"
"1203",1203,"west columbia, south carolina, usa",16,-81.0739825,33.9934867,"west columbia"," south carolina"," usa"
"1204",1204,"west orange, new jersey, usa",16,-74.2390828,40.7985699,"west orange"," new jersey"," usa"
"1205",1205,"weymouth, massachusetts, usa",16,-70.9410356,42.2180724,"weymouth"," massachusetts"," usa"
"1206",1206,"youngstown, ohio, usa",16,-80.6495194,41.0997803,"youngstown"," ohio"," usa"
"1207",1207,"zaragoza, n/a, spain",16,-0.8890853,41.6488226,"zaragoza"," n/a"," spain"
"1208",1208,"allen, texas, usa",15,-96.6705503,33.1031744,"allen"," texas"," usa"
"1209",1209,"alvin, texas, usa",15,-95.2441009,29.4238472,"alvin"," texas"," usa"
"1210",1210,"amherst, new york, usa",15,-78.792272,42.9790067,"amherst"," new york"," usa"
"1211",1211,"arcadia, california, usa",15,-118.0353449,34.1397292,"arcadia"," california"," usa"
"1212",1212,"aurora, ontario, canada",15,-79.450396,44.00648,"aurora"," ontario"," canada"
"1213",1213,"badajoz, badajoz, spain",15,-6.9706535,38.8794495,"badajoz"," badajoz"," spain"
"1214",1214,"basel, basel, switzerland",15,7.5885761,47.5595986,"basel"," basel"," switzerland"
"1215",1215,"basingstoke, england, united kingdom",15,-1.0923964,51.26654,"basingstoke"," england"," united kingdom"
"1216",1216,"bayreuth, bayern, germany",15,11.5713346,49.9456399,"bayreuth"," bayern"," germany"
"1217",1217,"biloxi, mississippi, usa",15,-88.8853078,30.3960318,"biloxi"," mississippi"," usa"
"1218",1218,"brainerd, minnesota, usa",15,-94.2020084,46.3526733,"brainerd"," minnesota"," usa"
"1219",1219,"brighton, michigan, usa",15,-83.7802214,42.5294773,"brighton"," michigan"," usa"
"1220",1220,"brookfield, wisconsin, usa",15,-88.1064787,43.0605671,"brookfield"," wisconsin"," usa"
"1221",1221,"buenos aires, n/a, argentina",15,-58.3815591,-34.6036844,"buenos aires"," n/a"," argentina"
"1222",1222,"capital federal, capital federal, argentina",15,-58.3815591,-34.6036844,"capital federal"," capital federal"," argentina"
"1223",1223,"cartersville, georgia, usa",15,-84.7999382,34.1650972,"cartersville"," georgia"," usa"
"1224",1224,"casselberry, florida, usa",15,-81.3278455,28.677775,"casselberry"," florida"," usa"
"1225",1225,"clayton, north carolina, usa",15,-78.4563914,35.650711,"clayton"," north carolina"," usa"
"1226",1226,"coral gables, florida, usa",15,-80.2683838,25.72149,"coral gables"," florida"," usa"
"1227",1227,"daytona beach, florida, usa",15,-81.0228331,29.2108147,"daytona beach"," florida"," usa"
"1228",1228,"den haag, zuid holland, netherlands",15,4.3006999,52.0704978,"den haag"," zuid holland"," netherlands"
"1229",1229,"edwardsville, illinois, usa",15,-89.953157,38.8114364,"edwardsville"," illinois"," usa"
"1230",1230,"elgin, illinois, usa",15,-88.2825668,42.0354084,"elgin"," illinois"," usa"
"1231",1231,"evergreen, colorado, usa",15,-105.3172146,39.6333213,"evergreen"," colorado"," usa"
"1232",1232,"fayetteville, arkansas, usa",15,-94.1574263,36.0625795,"fayetteville"," arkansas"," usa"
"1233",1233,"fountain valley, california, usa",15,-117.9536697,33.7091847,"fountain valley"," california"," usa"
"1234",1234,"galveston, texas, usa",15,-94.7976958,29.3013479,"galveston"," texas"," usa"
"1235",1235,"georgetown, ontario, canada",15,-79.9036236,43.6502046,"georgetown"," ontario"," canada"
"1236",1236,"glen burnie, maryland, usa",15,-76.6246886,39.1626084,"glen burnie"," maryland"," usa"
"1237",1237,"glen ellyn, illinois, usa",15,-88.0670118,41.8775293,"glen ellyn"," illinois"," usa"
"1238",1238,"gloucester, massachusetts, usa",15,-70.6619888,42.6159285,"gloucester"," massachusetts"," usa"
"1239",1239,"grand forks, north dakota, usa",15,-97.0328547,47.9252568,"grand forks"," north dakota"," usa"
"1240",1240,"grapevine, texas, usa",15,-97.0780654,32.9342919,"grapevine"," texas"," usa"
"1241",1241,"halle, sachsen-anhalt, germany",15,11.9688029,51.4969802,"halle"," sachsen-anhalt"," germany"
"1242",1242,"healdsburg, california, usa",15,-122.8691609,38.6104658,"healdsburg"," california"," usa"
"1243",1243,"highlands ranch, colorado, usa",15,-104.9739333,39.5480789,"highlands ranch"," colorado"," usa"
"1244",1244,"hoboken, new jersey, usa",15,-74.0323626,40.7439905,"hoboken"," new jersey"," usa"
"1245",1245,"jamaica plain, massachusetts, usa",15,-71.1151431,42.3097365,"jamaica plain"," massachusetts"," usa"
"1246",1246,"kanata, ontario, canada",15,-75.8986835,45.3088185,"kanata"," ontario"," canada"
"1247",1247,"kenner, louisiana, usa",15,-90.2417434,29.9940924,"kenner"," louisiana"," usa"
"1248",1248,"kennewick, washington, usa",15,-119.1372338,46.2112458,"kennewick"," washington"," usa"
"1249",1249,"kenosha, wisconsin, usa",15,-87.8211854,42.5847425,"kenosha"," wisconsin"," usa"
"1250",1250,"la crosse, wisconsin, usa",15,-91.2395807,43.8013556,"la crosse"," wisconsin"," usa"
"1251",1251,"leeds, yorkshire, united kingdom",15,-1.5490774,53.8007554,"leeds"," yorkshire"," united kingdom"
"1252",1252,"lleida, catalunya, spain",15,0.6200146,41.6175899,"lleida"," catalunya"," spain"
"1253",1253,"longview, washington, usa",15,-122.9381672,46.1381676,"longview"," washington"," usa"
"1254",1254,"ludwigshafen, rheinland-pfalz, germany",15,8.44518,49.47741,"ludwigshafen"," rheinland-pfalz"," germany"
"1255",1255,"manhattan beach, california, usa",15,-118.4109089,33.8847361,"manhattan beach"," california"," usa"
"1256",1256,"manteca, california, usa",15,-121.2160526,37.7974273,"manteca"," california"," usa"
"1257",1257,"mchenry, illinois, usa",15,-88.2667534,42.333355,"mchenry"," illinois"," usa"
"1258",1258,"miami beach, florida, usa",15,-80.1300455,25.790654,"miami beach"," florida"," usa"
"1259",1259,"midland, michigan, usa",15,-84.2472116,43.6155825,"midland"," michigan"," usa"
"1260",1260,"milford, new hampshire, usa",15,-71.6489836,42.8353619,"milford"," new hampshire"," usa"
"1261",1261,"monterrey, nuevo leon, mexico",15,-100.3161126,25.6866142,"monterrey"," nuevo leon"," mexico"
"1262",1262,"myrtle beach, south carolina, usa",15,-78.8866943,33.6890603,"myrtle beach"," south carolina"," usa"
"1263",1263,"natick, massachusetts, usa",15,-71.3468091,42.2775281,"natick"," massachusetts"," usa"
"1264",1264,"niagara falls, new york, usa",15,-79.0377388,43.0962143,"niagara falls"," new york"," usa"
"1265",1265,"niagara falls, ontario, canada",15,-79.0849436,43.0895577,"niagara falls"," ontario"," canada"
"1266",1266,"norcross, georgia, usa",15,-84.2135309,33.9412127,"norcross"," georgia"," usa"
"1267",1267,"normal, illinois, usa",15,-88.9906312,40.5142026,"normal"," illinois"," usa"
"1268",1268,"novi, michigan, usa",15,-83.4754913,42.48059,"novi"," michigan"," usa"
"1269",1269,"offenbach, hessen, germany",15,8.7760843,50.0956362,"offenbach"," hessen"," germany"
"1270",1270,"oshkosh, wisconsin, usa",15,-88.5426136,44.0247062,"oshkosh"," wisconsin"," usa"
"1271",1271,"pescara, abruzzo, italy",15,14.2160898,42.4617902,"pescara"," abruzzo"," italy"
"1272",1272,"pflugerville, texas, usa",15,-97.6200043,30.4393696,"pflugerville"," texas"," usa"
"1273",1273,"portage, michigan, usa",15,-85.5800022,42.2011538,"portage"," michigan"," usa"
"1274",1274,"queens, new york, usa",15,-73.7948516,40.7282239,"queens"," new york"," usa"
"1275",1275,"reading, berkshire, united kingdom",15,-0.9781303,51.4542645,"reading"," berkshire"," united kingdom"
"1276",1276,"ridgewood, new jersey, usa",15,-74.1165313,40.9792645,"ridgewood"," new jersey"," usa"
"1277",1277,"rio rancho, new mexico, usa",15,-106.6630437,35.2327544,"rio rancho"," new mexico"," usa"
"1278",1278,"rochester, michigan, usa",15,-83.1338214,42.680588,"rochester"," michigan"," usa"
"1279",1279,"rohnert park, california, usa",15,-122.7010984,38.3396367,"rohnert park"," california"," usa"
"1280",1280,"salem, massachusetts, usa",15,-70.8967155,42.51954,"salem"," massachusetts"," usa"
"1281",1281,"san angelo, texas, usa",15,-100.4370375,31.4637723,"san angelo"," texas"," usa"
"1282",1282,"san clemente, california, usa",15,-117.6119925,33.4269728,"san clemente"," california"," usa"
"1283",1283,"santa maria, california, usa",15,-120.4357191,34.9530337,"santa maria"," california"," usa"
"1284",1284,"southfield, michigan, usa",15,-83.2218731,42.4733688,"southfield"," michigan"," usa"
"1285",1285,"st. albert, alberta, canada",15,-113.625642,53.6304753,"st. albert"," alberta"," canada"
"1286",1286,"stevens point, wisconsin, usa",15,-89.574563,44.5235792,"stevens point"," wisconsin"," usa"
"1287",1287,"sunrise, florida, usa",15,-80.256595,26.1669711,"sunrise"," florida"," usa"
"1288",1288,"surrey, england, united kingdom",15,-0.5599501,51.3147593,"surrey"," england"," united kingdom"
"1289",1289,"tübingen, baden-württemberg, germany",15,-0.1277583,51.5073509,"tübingen"," baden-württemberg"," germany"
"1290",1290,"temple, texas, usa",15,-97.342782,31.0982344,"temple"," texas"," usa"
"1291",1291,"truro, nova scotia, canada",15,-63.2869407,45.3657733,"truro"," nova scotia"," canada"
"1292",1292,"turku, n/a, finland",15,22.2666303,60.4518126,"turku"," n/a"," finland"
"1293",1293,"turlock, california, usa",15,-120.8465941,37.4946568,"turlock"," california"," usa"
"1294",1294,"valencia, california, usa",15,-118.5713823,34.456151,"valencia"," california"," usa"
"1295",1295,"vernon, british columbia, canada",15,-119.2720107,50.2670137,"vernon"," british columbia"," canada"
"1296",1296,"würzburg, bayern, germany",15,-0.1277583,51.5073509,"würzburg"," bayern"," germany"
"1297",1297,"walla walla, washington, usa",15,-118.3430209,46.0645809,"walla walla"," washington"," usa"
"1298",1298,"wausau, wisconsin, usa",15,-89.6301221,44.9591352,"wausau"," wisconsin"," usa"
"1299",1299,"winston salem, north carolina, usa",15,-80.244216,36.0998596,"winston salem"," north carolina"," usa"
"1300",1300,"xenia, ohio, usa",15,-83.9296526,39.6847822,"xenia"," ohio"," usa"
"1301",1301,"zürich, n/a, switzerland",15,-0.1277583,51.5073509,"zürich"," n/a"," switzerland"
"1302",1302,"amersfoort, utrecht, netherlands",14,5.3878266,52.1561113,"amersfoort"," utrecht"," netherlands"
"1303",1303,"annapolis, maryland, usa",14,-76.4921829,38.9784453,"annapolis"," maryland"," usa"
"1304",1304,"apopka, florida, usa",14,-81.5322149,28.6934076,"apopka"," florida"," usa"
"1305",1305,"athens, attica, greece",14,23.7275388,37.9838096,"athens"," attica"," greece"
"1306",1306,"basel, basel-stadt, switzerland",14,7.5885761,47.5595986,"basel"," basel-stadt"," switzerland"
"1307",1307,"belmont, california, usa",14,-122.2758008,37.5202145,"belmont"," california"," usa"
"1308",1308,"berkley, michigan, usa",14,-83.1835389,42.5030908,"berkley"," michigan"," usa"
"1309",1309,"beverly, massachusetts, usa",14,-70.880049,42.5584283,"beverly"," massachusetts"," usa"
"1310",1310,"blackpool, england, united kingdom",14,-3.0356748,53.8175053,"blackpool"," england"," united kingdom"
"1311",1311,"bolzano, trentino alto adige, italy",14,11.3547582,46.4982953,"bolzano"," trentino alto adige"," italy"
"1312",1312,"bristol, connecticut, usa",14,-72.9492703,41.6717648,"bristol"," connecticut"," usa"
"1313",1313,"brunswick, maine, usa",14,-69.9669961,43.9140162,"brunswick"," maine"," usa"
"1314",1314,"bruxelles, bruxelles, belgium",14,4.3517103,50.8503396,"bruxelles"," bruxelles"," belgium"
"1315",1315,"bunbury, western australia, australia",14,115.6396494,-33.325636,"bunbury"," western australia"," australia"
"1316",1316,"burnsville, minnesota, usa",14,-93.2777226,44.7677424,"burnsville"," minnesota"," usa"
"1317",1317,"butler, pennsylvania, usa",14,-79.8953328,40.8611755,"butler"," pennsylvania"," usa"
"1318",1318,"cambridge, ontario, canada",14,-80.3144276,43.3616211,"cambridge"," ontario"," canada"
"1319",1319,"campbell, california, usa",14,-121.9499568,37.2871651,"campbell"," california"," usa"
"1320",1320,"campinas, sao paulo, brazil",14,-47.0626332,-22.9099384,"campinas"," sao paulo"," brazil"
"1321",1321,"carrboro, north carolina, usa",14,-79.0752895,35.9101438,"carrboro"," north carolina"," usa"
"1322",1322,"chemnitz, sachsen, germany",14,12.9213697,50.827845,"chemnitz"," sachsen"," germany"
"1323",1323,"chennai, tamilnadu, india",14,80.2707184,13.0826802,"chennai"," tamilnadu"," india"
"1324",1324,"chester, cheshire, united kingdom",14,-2.893075,53.193392,"chester"," cheshire"," united kingdom"
"1325",1325,"coimbra, n/a, portugal",14,-8.4102573,40.2033145,"coimbra"," n/a"," portugal"
"1326",1326,"conway, arkansas, usa",14,-92.4421011,35.0886963,"conway"," arkansas"," usa"
"1327",1327,"coon rapids, minnesota, usa",14,-93.3030063,45.1732394,"coon rapids"," minnesota"," usa"
"1328",1328,"cranston, rhode island, usa",14,-71.4372796,41.7798226,"cranston"," rhode island"," usa"
"1329",1329,"dekalb, illinois, usa",14,-88.7503647,41.9294736,"dekalb"," illinois"," usa"
"1330",1330,"derby, kansas, usa",14,-97.2689331,37.5455735,"derby"," kansas"," usa"
"1331",1331,"east windsor, new jersey, usa",14,-74.5402506,40.2677539,"east windsor"," new jersey"," usa"
"1332",1332,"edina, minnesota, usa",14,-93.3499489,44.8896866,"edina"," minnesota"," usa"
"1333",1333,"fairhope, alabama, usa",14,-87.9033261,30.5229719,"fairhope"," alabama"," usa"
"1334",1334,"germantown, tennessee, usa",14,-89.8100858,35.0867577,"germantown"," tennessee"," usa"
"1335",1335,"gig harbor, washington, usa",14,-122.5801293,47.329264,"gig harbor"," washington"," usa"
"1336",1336,"grand forks, british columbia, canada",14,-118.4451392,49.0300946,"grand forks"," british columbia"," canada"
"1337",1337,"great falls, montana, usa",14,-111.2833449,47.4941836,"great falls"," montana"," usa"
"1338",1338,"greeley, colorado, usa",14,-104.7091322,40.4233142,"greeley"," colorado"," usa"
"1339",1339,"hammond, indiana, usa",14,-87.5000412,41.5833688,"hammond"," indiana"," usa"
"1340",1340,"hanover, pennsylvania, usa",14,-76.9830358,39.8006553,"hanover"," pennsylvania"," usa"
"1341",1341,"havertown, pennsylvania, usa",14,-75.3149796,39.9763656,"havertown"," pennsylvania"," usa"
"1342",1342,"hereford, england, united kingdom",14,-2.715974,52.056398,"hereford"," england"," united kingdom"
"1343",1343,"huddersfield, england, united kingdom",14,-1.785035,53.645792,"huddersfield"," england"," united kingdom"
"1344",1344,"inverness, scotland, united kingdom",14,-4.224721,57.477773,"inverness"," scotland"," united kingdom"
"1345",1345,"joliet, illinois, usa",14,-88.0817251,41.525031,"joliet"," illinois"," usa"
"1346",1346,"jupiter, florida, usa",14,-80.0942087,26.9342246,"jupiter"," florida"," usa"
"1347",1347,"kentwood, michigan, usa",14,-85.6447492,42.8694731,"kentwood"," michigan"," usa"
"1348",1348,"lübeck, schleswig-holstein, germany",14,-0.1277583,51.5073509,"lübeck"," schleswig-holstein"," germany"
"1349",1349,"leiden, zuid holland, netherlands",14,4.4970097,52.1601144,"leiden"," zuid holland"," netherlands"
"1350",1350,"lincoln, england, united kingdom",14,-0.540579,53.230688,"lincoln"," england"," united kingdom"
"1351",1351,"lleida, lleida, spain",14,0.6200146,41.6175899,"lleida"," lleida"," spain"
"1352",1352,"lombard, illinois, usa",14,-88.0078435,41.8800296,"lombard"," illinois"," usa"
"1353",1353,"los alamos, new mexico, usa",14,-106.3031138,35.8800364,"los alamos"," new mexico"," usa"
"1354",1354,"málaga, andalucía, spain",14,-0.1277583,51.5073509,"málaga"," andalucía"," spain"
"1355",1355,"mackay, queensland, australia",14,149.1821469,-21.1424956,"mackay"," queensland"," australia"
"1356",1356,"maplewood, new jersey, usa",14,-74.271992,40.7299793,"maplewood"," new jersey"," usa"
"1357",1357,"mendoza, mendoza, argentina",14,-68.8458386,-32.8894587,"mendoza"," mendoza"," argentina"
"1358",1358,"mercer island, washington, usa",14,-122.2220673,47.5706548,"mercer island"," washington"," usa"
"1359",1359,"methuen, massachusetts, usa",14,-71.1908924,42.7262016,"methuen"," massachusetts"," usa"
"1360",1360,"middletown, ohio, usa",14,-84.3982763,39.5150576,"middletown"," ohio"," usa"
"1361",1361,"milan, italy, italy",14,9.1859243,45.4654219,"milan"," italy"," italy"
"1362",1362,"mission, british columbia, canada",14,-122.3261603,49.1329272,"mission"," british columbia"," canada"
"1363",1363,"moline, illinois, usa",14,-90.5151342,41.5067003,"moline"," illinois"," usa"
"1364",1364,"n/a, n/a, united kingdom",14,-3.435973,55.378051,"n/a"," n/a"," united kingdom"
"1365",1365,"naples, campania, italy",14,14.2681244,40.8517746,"naples"," campania"," italy"
"1366",1366,"neuss, nordrhein-westfalen, germany",14,6.6879511,51.2041968,"neuss"," nordrhein-westfalen"," germany"
"1367",1367,"new bedford, massachusetts, usa",14,-70.934205,41.6362152,"new bedford"," massachusetts"," usa"
"1368",1368,"newark, new jersey, usa",14,-74.1723667,40.735657,"newark"," new jersey"," usa"
"1369",1369,"newark, ohio, usa",14,-82.4012642,40.0581205,"newark"," ohio"," usa"
"1370",1370,"novara, piemonte, italy",14,8.6221612,45.44693,"novara"," piemonte"," italy"
"1371",1371,"oakdale, minnesota, usa",14,-92.9649361,44.9630216,"oakdale"," minnesota"," usa"
"1372",1372,"oberhausen, nordrhein-westfalen, germany",14,6.8637765,51.4963341,"oberhausen"," nordrhein-westfalen"," germany"
"1373",1373,"orem, utah, usa",14,-111.6946475,40.2968979,"orem"," utah"," usa"
"1374",1374,"ormond beach, florida, usa",14,-81.0558894,29.2858129,"ormond beach"," florida"," usa"
"1375",1375,"oxnard, california, usa",14,-119.1770516,34.1975048,"oxnard"," california"," usa"
"1376",1376,"palermo, sicilia, italy",14,13.3612671,38.1156879,"palermo"," sicilia"," italy"
"1377",1377,"palm springs, california, usa",14,-116.5452921,33.8302961,"palm springs"," california"," usa"
"1378",1378,"pawtucket, rhode island, usa",14,-71.3825558,41.878711,"pawtucket"," rhode island"," usa"
"1379",1379,"pearland, texas, usa",14,-95.2860474,29.5635666,"pearland"," texas"," usa"
"1380",1380,"piscataway, new jersey, usa",14,-74.4642861,40.554887,"piscataway"," new jersey"," usa"
"1381",1381,"port moody, british columbia, canada",14,-122.8677562,49.2849107,"port moody"," british columbia"," canada"
"1382",1382,"puebla, puebla, mexico",14,-98.2061996,19.0412967,"puebla"," puebla"," mexico"
"1383",1383,"québec, quebec, canada",14,-0.1277583,51.5073509,"québec"," quebec"," canada"
"1384",1384,"rancho cordova, california, usa",14,-121.302728,38.5890723,"rancho cordova"," california"," usa"
"1385",1385,"richland, washington, usa",14,-119.2844621,46.2856907,"richland"," washington"," usa"
"1386",1386,"rocklin, california, usa",14,-121.2357828,38.7907339,"rocklin"," california"," usa"
"1387",1387,"rotterdam, n/a, netherlands",14,4.4777325,51.9244201,"rotterdam"," n/a"," netherlands"
"1388",1388,"saint peters, missouri, usa",14,-90.6298922,38.7874699,"saint peters"," missouri"," usa"
"1389",1389,"san carlos, california, usa",14,-122.2605222,37.5071591,"san carlos"," california"," usa"
"1390",1390,"san sebastian, guipuzcoa, spain",14,-1.9812313,43.318334,"san sebastian"," guipuzcoa"," spain"
"1391",1391,"sanford, florida, usa",14,-81.269453,28.8028612,"sanford"," florida"," usa"
"1392",1392,"shenzhen, guangdong, china",14,114.057865,22.543096,"shenzhen"," guangdong"," china"
"1393",1393,"sierra vista, arizona, usa",14,-110.2772856,31.5455001,"sierra vista"," arizona"," usa"
"1394",1394,"simpsonville, south carolina, usa",14,-82.2542834,34.7370639,"simpsonville"," south carolina"," usa"
"1395",1395,"solingen, nordrhein-westfalen, germany",14,7.0831408,51.1702072,"solingen"," nordrhein-westfalen"," germany"
"1396",1396,"south pasadena, california, usa",14,-118.1503488,34.1161196,"south pasadena"," california"," usa"
"1397",1397,"south portland, maine, usa",14,-70.2408811,43.6414716,"south portland"," maine"," usa"
"1398",1398,"st. cloud, minnesota, usa",14,-94.1632404,45.5579451,"st. cloud"," minnesota"," usa"
"1399",1399,"stockport, england, united kingdom",14,-2.1575332,53.4106316,"stockport"," england"," united kingdom"
"1400",1400,"thousand oaks, california, usa",14,-118.8375937,34.1705609,"thousand oaks"," california"," usa"
"1401",1401,"trier, rheinland-pfalz, germany",14,6.6371433,49.749992,"trier"," rheinland-pfalz"," germany"
"1402",1402,"tyler, texas, usa",14,-95.3010624,32.3512601,"tyler"," texas"," usa"
"1403",1403,"udine, friuli venezia giulia, italy",14,13.2345794,46.0710668,"udine"," friuli venezia giulia"," italy"
"1404",1404,"upland, california, usa",14,-117.6483876,34.09751,"upland"," california"," usa"
"1405",1405,"valparaiso, indiana, usa",14,-87.0611412,41.4730948,"valparaiso"," indiana"," usa"
"1406",1406,"wallingford, connecticut, usa",14,-72.8230736,41.4570108,"wallingford"," connecticut"," usa"
"1407",1407,"waterloo, iowa, usa",14,-92.3425775,42.492786,"waterloo"," iowa"," usa"
"1408",1408,"wayne, new jersey, usa",14,-74.2765441,40.9253725,"wayne"," new jersey"," usa"
"1409",1409,"west bloomfield, michigan, usa",14,-83.373339,42.5678534,"west bloomfield"," michigan"," usa"
"1410",1410,"white bear lake, minnesota, usa",14,-93.0081479,45.0853814,"white bear lake"," minnesota"," usa"
"1411",1411,"white plains, new york, usa",14,-73.7629097,41.0339862,"white plains"," new york"," usa"
"1412",1412,"albany, georgia, usa",13,-84.155741,31.5785074,"albany"," georgia"," usa"
"1413",1413,"albuquerque, ,",13,-106.6055534,35.0853336,"albuquerque"," ",""
"1414",1414,"ankara, ankara, turkey",13,32.8597419,39.9333635,"ankara"," ankara"," turkey"
"1415",1415,"athens, ohio, usa",13,-82.1012554,39.3292396,"athens"," ohio"," usa"
"1416",1416,"auckland, north island, new zealand",13,174.7633315,-36.8484597,"auckland"," north island"," new zealand"
"1417",1417,"avilés, asturias, spain",13,-0.1277583,51.5073509,"avilés"," asturias"," spain"
"1418",1418,"barcelona, baden-wuerttemberg, spain",13,2.1734035,41.3850639,"barcelona"," baden-wuerttemberg"," spain"
"1419",1419,"bartlett, illinois, usa",13,-88.1856301,41.9950276,"bartlett"," illinois"," usa"
"1420",1420,"bartlett, tennessee, usa",13,-89.8739753,35.2045328,"bartlett"," tennessee"," usa"
"1421",1421,"brighton, sussex, united kingdom",13,-0.137163,50.82253,"brighton"," sussex"," united kingdom"
"1422",1422,"buffalo grove, illinois, usa",13,-87.9631308,42.1662831,"buffalo grove"," illinois"," usa"
"1423",1423,"carlisle, pennsylvania, usa",13,-77.2002745,40.2010241,"carlisle"," pennsylvania"," usa"
"1424",1424,"castlegar, british columbia, canada",13,-117.6593341,49.3237408,"castlegar"," british columbia"," canada"
"1425",1425,"cedar park, texas, usa",13,-97.8202888,30.505198,"cedar park"," texas"," usa"
"1426",1426,"città di castello, umbria, italy",13,-0.1277583,51.5073509,"città di castello"," umbria"," italy"
"1427",1427,"clemson, south carolina, usa",13,-82.8373654,34.6834382,"clemson"," south carolina"," usa"
"1428",1428,"cologne, nrw, germany",13,6.9602786,50.937531,"cologne"," nrw"," germany"
"1429",1429,"cordova, tennessee, usa",13,-89.761545,35.1598391,"cordova"," tennessee"," usa"
"1430",1430,"cremona, lombardia, italy",13,10.0226511,45.133249,"cremona"," lombardia"," italy"
"1431",1431,"decatur, illinois, usa",13,-88.9548001,39.8403147,"decatur"," illinois"," usa"
"1432",1432,"deltona, florida, usa",13,-81.2636738,28.9005446,"deltona"," florida"," usa"
"1433",1433,"duncan, british columbia, canada",13,-123.7079416,48.7786908,"duncan"," british columbia"," canada"
"1434",1434,"eden prairie, minnesota, usa",13,-93.470786,44.8546856,"eden prairie"," minnesota"," usa"
"1435",1435,"edison, new jersey, usa",13,-74.4120953,40.5187154,"edison"," new jersey"," usa"
"1436",1436,"elizabethtown, pennsylvania, usa",13,-76.6027455,40.1528719,"elizabethtown"," pennsylvania"," usa"
"1437",1437,"fenton, michigan, usa",13,-83.7049498,42.7978061,"fenton"," michigan"," usa"
"1438",1438,"ferndale, washington, usa",13,-122.5910056,48.8464991,"ferndale"," washington"," usa"
"1439",1439,"forest hills, new york, usa",13,-73.8448469,40.718106,"forest hills"," new york"," usa"
"1440",1440,"fort pierce, florida, usa",13,-80.3256056,27.4467056,"fort pierce"," florida"," usa"
"1441",1441,"fort walton beach, florida, usa",13,-86.6170308,30.4200708,"fort walton beach"," florida"," usa"
"1442",1442,"frankfort, kentucky, usa",13,-84.8732835,38.2009055,"frankfort"," kentucky"," usa"
"1443",1443,"garden grove, california, usa",13,-117.9414477,33.7739053,"garden grove"," california"," usa"
"1444",1444,"grants pass, oregon, usa",13,-123.3283925,42.4390069,"grants pass"," oregon"," usa"
"1445",1445,"greenville, north carolina, usa",13,-77.3663538,35.612661,"greenville"," north carolina"," usa"
"1446",1446,"grove city, ohio, usa",13,-83.0929644,39.8814519,"grove city"," ohio"," usa"
"1447",1447,"hackettstown, new jersey, usa",13,-74.8290555,40.8539879,"hackettstown"," new jersey"," usa"
"1448",1448,"hamilton, new jersey, usa",13,-74.6796651,40.2115109,"hamilton"," new jersey"," usa"
"1449",1449,"harrodsburg, kentucky, usa",13,-84.8432852,37.762298,"harrodsburg"," kentucky"," usa"
"1450",1450,"helena, montana, usa",13,-112.0245054,46.5883707,"helena"," montana"," usa"
"1451",1451,"hickory, north carolina, usa",13,-81.3444573,35.7344538,"hickory"," north carolina"," usa"
"1452",1452,"hutchinson, kansas, usa",13,-97.9297743,38.0608445,"hutchinson"," kansas"," usa"
"1453",1453,"ipswich, england, united kingdom",13,1.14822,52.056736,"ipswich"," england"," united kingdom"
"1454",1454,"janesville, wisconsin, usa",13,-89.0187222,42.6827885,"janesville"," wisconsin"," usa"
"1455",1455,"kannapolis, north carolina, usa",13,-80.6217341,35.4873613,"kannapolis"," north carolina"," usa"
"1456",1456,"kerrville, texas, usa",13,-99.1403189,30.0474332,"kerrville"," texas"," usa"
"1457",1457,"king of prussia, pennsylvania, usa",13,-75.3835525,40.1012856,"king of prussia"," pennsylvania"," usa"
"1458",1458,"klamath falls, oregon, usa",13,-121.7816704,42.224867,"klamath falls"," oregon"," usa"
"1459",1459,"klang, selangor, malaysia",13,101.4455621,3.044917,"klang"," selangor"," malaysia"
"1460",1460,"kuala lumpur, selangor, malaysia",13,101.686855,3.139003,"kuala lumpur"," selangor"," malaysia"
"1461",1461,"la plata, buenos aires, argentina",13,-57.9535657,-34.9204948,"la plata"," buenos aires"," argentina"
"1462",1462,"la ronge, saskatchewan, canada",13,-105.285989,55.10823,"la ronge"," saskatchewan"," canada"
"1463",1463,"lafayette, california, usa",13,-122.1180201,37.8857582,"lafayette"," california"," usa"
"1464",1464,"laguna beach, california, usa",13,-117.7831104,33.5422475,"laguna beach"," california"," usa"
"1465",1465,"lakewood, california, usa",13,-118.1339563,33.8536269,"lakewood"," california"," usa"
"1466",1466,"leamington spa, england, united kingdom",13,-1.5200789,52.2851905,"leamington spa"," england"," united kingdom"
"1467",1467,"leeds, west yorkshire, united kingdom",13,-1.5490774,53.8007554,"leeds"," west yorkshire"," united kingdom"
"1468",1468,"lima, ohio, usa",13,-84.1052256,40.742551,"lima"," ohio"," usa"
"1469",1469,"linz, oberoesterreich, austria",13,14.28583,48.30694,"linz"," oberoesterreich"," austria"
"1470",1470,"lockport, new york, usa",13,-78.6903098,43.1706128,"lockport"," new york"," usa"
"1471",1471,"malaga, andalucia, spain",13,-4.4212655,36.721261,"malaga"," andalucia"," spain"
"1472",1472,"manchester, manchester, united kingdom",13,-2.2426305,53.4807593,"manchester"," manchester"," united kingdom"
"1473",1473,"maplewood, minnesota, usa",13,-92.9952153,44.9530215,"maplewood"," minnesota"," usa"
"1474",1474,"maryville, tennessee, usa",13,-83.9704593,35.7564719,"maryville"," tennessee"," usa"
"1475",1475,"medicine hat, alberta, canada",13,-110.6764258,50.0405486,"medicine hat"," alberta"," canada"
"1476",1476,"nantes, loire atlantique, france",13,-1.553621,47.218371,"nantes"," loire atlantique"," france"
"1477",1477,"new milford, connecticut, usa",13,-73.4085463,41.5770433,"new milford"," connecticut"," usa"
"1478",1478,"newburgh, new york, usa",13,-74.0104178,41.5034271,"newburgh"," new york"," usa"
"1479",1479,"niceville, florida, usa",13,-86.482172,30.5168639,"niceville"," florida"," usa"
"1480",1480,"north tonawanda, new york, usa",13,-78.8642033,43.038668,"north tonawanda"," new york"," usa"
"1481",1481,"north york, ontario, canada",13,-79.4110794,43.7615377,"north york"," ontario"," canada"
"1482",1482,"ofallon, missouri, usa",13,-90.6998477,38.8106075,"ofallon"," missouri"," usa"
"1483",1483,"owen sound, ontario, canada",13,-80.9405602,44.5690305,"owen sound"," ontario"," canada"
"1484",1484,"paducah, kentucky, usa",13,-88.6000478,37.0833893,"paducah"," kentucky"," usa"
"1485",1485,"painesville, ohio, usa",13,-81.245657,41.7244885,"painesville"," ohio"," usa"
"1486",1486,"park forest, illinois, usa",13,-87.6744891,41.4914236,"park forest"," illinois"," usa"
"1487",1487,"pasadena, maryland, usa",13,-76.5710753,39.1073317,"pasadena"," maryland"," usa"
"1488",1488,"plant city, florida, usa",13,-82.1128641,28.0186323,"plant city"," florida"," usa"
"1489",1489,"plymouth, michigan, usa",13,-83.5090381,42.3735328,"plymouth"," michigan"," usa"
"1490",1490,"port angeles, washington, usa",13,-123.4307413,48.118146,"port angeles"," washington"," usa"
"1491",1491,"port townsend, washington, usa",13,-122.7604472,48.1170387,"port townsend"," washington"," usa"
"1492",1492,"pottstown, pennsylvania, usa",13,-75.6496302,40.2453741,"pottstown"," pennsylvania"," usa"
"1493",1493,"pueblo, colorado, usa",13,-104.6091409,38.2544472,"pueblo"," colorado"," usa"
"1494",1494,"richmond, indiana, usa",13,-84.8902382,39.8289369,"richmond"," indiana"," usa"
"1495",1495,"rockhampton, queensland, australia",13,150.510016,-23.3790772,"rockhampton"," queensland"," australia"
"1496",1496,"roseburg, oregon, usa",13,-123.3417381,43.216505,"roseburg"," oregon"," usa"
"1497",1497,"salisbury, england, united kingdom",13,-1.794472,51.068785,"salisbury"," england"," united kingdom"
"1498",1498,"san anselmo, california, usa",13,-122.5616448,37.9746458,"san anselmo"," california"," usa"
"1499",1499,"san bruno, california, usa",13,-122.4110835,37.6304904,"san bruno"," california"," usa"
"1500",1500,"santiago, metropolitana, chile",13,-70.6504896,-33.4375545,"santiago"," metropolitana"," chile"
"1501",1501,"sesto san giovanni, lombardia, italy",13,9.2256875,45.5328245,"sesto san giovanni"," lombardia"," italy"
"1502",1502,"socorro, new mexico, usa",13,-106.8914159,34.0583995,"socorro"," new mexico"," usa"
"1503",1503,"springfield, ohio, usa",13,-83.8088171,39.9242266,"springfield"," ohio"," usa"
"1504",1504,"springfield, oregon, usa",13,-123.0220289,44.0462362,"springfield"," oregon"," usa"
"1505",1505,"statesville, north carolina, usa",13,-80.8872959,35.7826363,"statesville"," north carolina"," usa"
"1506",1506,"superior, wisconsin, usa",13,-92.1040796,46.7207737,"superior"," wisconsin"," usa"
"1507",1507,"tarragona, tarragona, spain",13,1.2444909,41.1188827,"tarragona"," tarragona"," spain"
"1508",1508,"terrassa, barcelona, spain",13,2.0088747,41.563211,"terrassa"," barcelona"," spain"
"1509",1509,"thornton, colorado, usa",13,-104.9719243,39.8680412,"thornton"," colorado"," usa"
"1510",1510,"tilburg, noord-brabant, netherlands",13,5.0919143,51.560596,"tilburg"," noord-brabant"," netherlands"
"1511",1511,"tokyo, tokyo, japan",13,139.7319925,35.7090259,"tokyo"," tokyo"," japan"
"1512",1512,"valladolid, castilla y leon, spain",13,-4.7245321,41.652251,"valladolid"," castilla y leon"," spain"
"1513",1513,"valrico, florida, usa",13,-82.2420317,27.9462615,"valrico"," florida"," usa"
"1514",1514,"venice, florida, usa",13,-82.4542632,27.0997775,"venice"," florida"," usa"
"1515",1515,"vienna, wien, austria",13,16.3738189,48.2081743,"vienna"," wien"," austria"
"1516",1516,"wagga wagga, new south wales, australia",13,147.3598323,-35.1081689,"wagga wagga"," new south wales"," australia"
"1517",1517,"washington, dc, dc, usa",13,-77.0368707,38.9071923,"washington"," dc"," dc"
"1518",1518,"watertown, new york, usa",13,-75.9107565,43.9747838,"watertown"," new york"," usa"
"1519",1519,"west hollywood, california, usa",13,-118.3617443,34.0900091,"west hollywood"," california"," usa"
"1520",1520,"westmont, illinois, usa",13,-87.9756175,41.7958639,"westmont"," illinois"," usa"
"1521",1521,"wien, n/a, austria",13,16.3738189,48.2081743,"wien"," n/a"," austria"
"1522",1522,"wolfsburg, niedersachsen, germany",13,10.7865461,52.4226503,"wolfsburg"," niedersachsen"," germany"
"1523",1523,"woodbury, minnesota, usa",13,-92.9593797,44.9238552,"woodbury"," minnesota"," usa"
"1524",1524,"woodstock, ontario, canada",13,-80.7471651,43.1314966,"woodstock"," ontario"," canada"
"1525",1525,"yardley, pennsylvania, usa",13,-74.8459972,40.245664,"yardley"," pennsylvania"," usa"
"1526",1526,"adrian, michigan, usa",12,-84.0371659,41.8975471,"adrian"," michigan"," usa"
"1527",1527,"aiken, south carolina, usa",12,-81.7195533,33.5604168,"aiken"," south carolina"," usa"
"1528",1528,"ajax, ontario, canada",12,-79.0203732,43.8508553,"ajax"," ontario"," canada"
"1529",1529,"aliso viejo, california, usa",12,-117.7256083,33.5676842,"aliso viejo"," california"," usa"
"1530",1530,"amadora, lisboa, portugal",12,-9.2245474,38.7577603,"amadora"," lisboa"," portugal"
"1531",1531,"andover, massachusetts, usa",12,-71.1367953,42.6583356,"andover"," massachusetts"," usa"
"1532",1532,"atlantic beach, florida, usa",12,-81.398696,30.3344077,"atlantic beach"," florida"," usa"
"1533",1533,"barcelona, alabama, spain",12,0.1541185,38.7853624,"barcelona"," alabama"," spain"
"1534",1534,"battle creek, michigan, usa",12,-85.1797142,42.3211522,"battle creek"," michigan"," usa"
"1535",1535,"bonn, nrw, germany",12,7.0982068,50.73743,"bonn"," nrw"," germany"
"1536",1536,"braga, n/a, portugal",12,-8.426507,41.5454486,"braga"," n/a"," portugal"
"1537",1537,"bratislava, bratislava, slovakia",12,17.1077477,48.1485965,"bratislava"," bratislava"," slovakia"
"1538",1538,"brick, new jersey, usa",12,-74.1371832,40.0578384,"brick"," new jersey"," usa"
"1539",1539,"brooklyn park, minnesota, usa",12,-93.3563405,45.0941315,"brooklyn park"," minnesota"," usa"
"1540",1540,"browns mills, new jersey, usa",12,-74.5829331,39.9726147,"browns mills"," new jersey"," usa"
"1541",1541,"burgos, burgos, spain",12,-3.696906,42.3439925,"burgos"," burgos"," spain"
"1542",1542,"canandaigua, new york, usa",12,-77.2816984,42.887535,"canandaigua"," new york"," usa"
"1543",1543,"canterbury, england, united kingdom",12,1.0789089,51.280233,"canterbury"," england"," united kingdom"
"1544",1544,"canton, georgia, usa",12,-84.4907621,34.2367621,"canton"," georgia"," usa"
"1545",1545,"chardon, ohio, usa",12,-81.2133262,41.5786639,"chardon"," ohio"," usa"
"1546",1546,"cheshire, connecticut, usa",12,-72.9106202,41.5083668,"cheshire"," connecticut"," usa"
"1547",1547,"chevy chase, maryland, usa",12,-77.0772052,38.9949153,"chevy chase"," maryland"," usa"
"1548",1548,"christchurch, south island, new zealand",12,172.6362254,-43.5320544,"christchurch"," south island"," new zealand"
"1549",1549,"cleveland, tennessee, usa",12,-84.8766115,35.1595182,"cleveland"," tennessee"," usa"
"1550",1550,"clifton, new jersey, usa",12,-74.1637553,40.8584328,"clifton"," new jersey"," usa"
"1551",1551,"college park, maryland, usa",12,-76.93776,38.9896967,"college park"," maryland"," usa"
"1552",1552,"collegeville, pennsylvania, usa",12,-75.451571,40.1856597,"collegeville"," pennsylvania"," usa"
"1553",1553,"conyers, georgia, usa",12,-84.0176904,33.6676103,"conyers"," georgia"," usa"
"1554",1554,"covington, louisiana, usa",12,-90.1009108,30.4754702,"covington"," louisiana"," usa"
"1555",1555,"covington, washington, usa",12,-122.118012,47.3595592,"covington"," washington"," usa"
"1556",1556,"croydon, england, united kingdom",12,-0.098234,51.376165,"croydon"," england"," united kingdom"
"1557",1557,"culver, indiana, usa",12,-86.413003,41.22242,"culver"," indiana"," usa"
"1558",1558,"cumming, georgia, usa",12,-84.1401926,34.2073196,"cumming"," georgia"," usa"
"1559",1559,"curitiba, paraná, brazil",12,-0.1277583,51.5073509,"curitiba"," paraná"," brazil"
"1560",1560,"dana point, california, usa",12,-117.6981075,33.4669721,"dana point"," california"," usa"
"1561",1561,"delft, zuid holland, netherlands",12,4.3570677,52.0115769,"delft"," zuid holland"," netherlands"
"1562",1562,"diamond bar, california, usa",12,-117.8103367,34.0286226,"diamond bar"," california"," usa"
"1563",1563,"dortmund, nrw, germany",12,7.4652981,51.5135872,"dortmund"," nrw"," germany"
"1564",1564,"east greenwich, rhode island, usa",12,-71.5130445,41.6342619,"east greenwich"," rhode island"," usa"
"1565",1565,"eastpointe, michigan, usa",12,-82.9554746,42.4683698,"eastpointe"," michigan"," usa"
"1566",1566,"eindhoven, noord brabant, netherlands",12,5.4697225,51.441642,"eindhoven"," noord brabant"," netherlands"
"1567",1567,"euless, texas, usa",12,-97.0819541,32.8370727,"euless"," texas"," usa"
"1568",1568,"fairfax, california, usa",12,-122.5888686,37.9871454,"fairfax"," california"," usa"
"1569",1569,"fairfield, california, usa",12,-122.0399663,38.2493581,"fairfield"," california"," usa"
"1570",1570,"fond du lac, wisconsin, usa",12,-88.4470508,43.7730448,"fond du lac"," wisconsin"," usa"
"1571",1571,"fontana, california, usa",12,-117.435048,34.0922335,"fontana"," california"," usa"
"1572",1572,"fort smith, arkansas, usa",12,-94.3985475,35.3859242,"fort smith"," arkansas"," usa"
"1573",1573,"franklin, massachusetts, usa",12,-71.396725,42.0834313,"franklin"," massachusetts"," usa"
"1574",1574,"frankston, victoria, australia",12,145.135,-38.158,"frankston"," victoria"," australia"
"1575",1575,"front royal, virginia, usa",12,-78.1944446,38.9181671,"front royal"," virginia"," usa"
"1576",1576,"fuengirola, málaga, spain",12,-0.1277583,51.5073509,"fuengirola"," málaga"," spain"
"1577",1577,"göteborg, västra götaland, sweden",12,-0.1277583,51.5073509,"göteborg"," västra götaland"," sweden"
"1578",1578,"giessen, hessen, germany",12,8.6784031,50.5840512,"giessen"," hessen"," germany"
"1579",1579,"glen allen, virginia, usa",12,-77.5063739,37.665978,"glen allen"," virginia"," usa"
"1580",1580,"goettingen, niedersachsen, germany",12,9.9158035,51.5412804,"goettingen"," niedersachsen"," germany"
"1581",1581,"goodyear, arizona, usa",12,-112.3576567,33.4353394,"goodyear"," arizona"," usa"
"1582",1582,"goose creek, south carolina, usa",12,-80.0325867,32.9810059,"goose creek"," south carolina"," usa"
"1583",1583,"grand haven, michigan, usa",12,-86.2283864,43.0630734,"grand haven"," michigan"," usa"
"1584",1584,"grayslake, illinois, usa",12,-88.041746,42.3444664,"grayslake"," illinois"," usa"
"1585",1585,"greer, south carolina, usa",12,-82.2270568,34.9387279,"greer"," south carolina"," usa"
"1586",1586,"grosse pointe, michigan, usa",12,-82.9118591,42.3861485,"grosse pointe"," michigan"," usa"
"1587",1587,"groton, connecticut, usa",12,-72.0790717,41.3497456,"groton"," connecticut"," usa"
"1588",1588,"grove city, pennsylvania, usa",12,-80.0886703,41.1578377,"grove city"," pennsylvania"," usa"
"1589",1589,"guildford, surrey, united kingdom",12,-0.570409,51.23622,"guildford"," surrey"," united kingdom"
"1590",1590,"hackensack, new jersey, usa",12,-74.0434736,40.8859325,"hackensack"," new jersey"," usa"
"1591",1591,"half moon bay, california, usa",12,-122.4285862,37.4635519,"half moon bay"," california"," usa"
"1592",1592,"hamm, nordrhein-westfalen, germany",12,7.8159816,51.6738583,"hamm"," nordrhein-westfalen"," germany"
"1593",1593,"herne, nordrhein-westfalen, germany",12,7.2009147,51.5368948,"herne"," nordrhein-westfalen"," germany"
"1594",1594,"hildesheim, niedersachsen, germany",12,9.9579652,52.154778,"hildesheim"," niedersachsen"," germany"
"1595",1595,"hixson, tennessee, usa",12,-85.2368219,35.137265,"hixson"," tennessee"," usa"
"1596",1596,"hudson, new hampshire, usa",12,-71.4398074,42.7647763,"hudson"," new hampshire"," usa"
"1597",1597,"hurst, texas, usa",12,-97.1705678,32.8234621,"hurst"," texas"," usa"
"1598",1598,"irmo, south carolina, usa",12,-81.1831513,34.0859829,"irmo"," south carolina"," usa"
"1599",1599,"killeen, texas, usa",12,-97.7277959,31.1171194,"killeen"," texas"," usa"
"1600",1600,"kingsport, tennessee, usa",12,-82.5618186,36.548434,"kingsport"," tennessee"," usa"
"1601",1601,"kolkata, west bengal, india",12,88.363895,22.572646,"kolkata"," west bengal"," india"
"1602",1602,"leavenworth, kansas, usa",12,-94.9224637,39.3111112,"leavenworth"," kansas"," usa"
"1603",1603,"lisboa, \n/a\, portugal",12,-9.1393366,38.7222524,"lisboa"," \n/a\"," portugal"
"1604",1604,"lisboa, portugal, portugal",12,-9.1393366,38.7222524,"lisboa"," portugal"," portugal"
"1605",1605,"lockport, illinois, usa",12,-88.057837,41.5894752,"lockport"," illinois"," usa"
"1606",1606,"london, greater london, united kingdom",12,-0.1277583,51.5073509,"london"," greater london"," united kingdom"
"1607",1607,"los osos, california, usa",12,-120.8384093,35.3072291,"los osos"," california"," usa"
"1608",1608,"luxembourg, n/a, luxembourg",12,6.129583,49.815273,"luxembourg"," n/a"," luxembourg"
"1609",1609,"maastricht, limburg, netherlands",12,5.6909725,50.8513682,"maastricht"," limburg"," netherlands"
"1610",1610,"manchester, missouri, usa",12,-90.5092882,38.5969977,"manchester"," missouri"," usa"
"1611",1611,"mandeville, louisiana, usa",12,-90.0656311,30.3582506,"mandeville"," louisiana"," usa"
"1612",1612,"manila, manila, philippines",12,120.9822098,14.6041497,"manila"," manila"," philippines"
"1613",1613,"matthews, north carolina, usa",12,-80.7236804,35.1168131,"matthews"," north carolina"," usa"
"1614",1614,"montpelier, vermont, usa",12,-72.5753869,44.2600593,"montpelier"," vermont"," usa"
"1615",1615,"mukilteo, washington, usa",12,-122.3045815,47.9445396,"mukilteo"," washington"," usa"
"1616",1616,"navarre, florida, usa",12,-86.9123217,30.4109342,"navarre"," florida"," usa"
"1617",1617,"new britain, connecticut, usa",12,-72.7795419,41.6612104,"new britain"," connecticut"," usa"
"1618",1618,"newberg, oregon, usa",12,-122.9731565,45.3001178,"newberg"," oregon"," usa"
"1619",1619,"newport, oregon, usa",12,-124.0534505,44.6367836,"newport"," oregon"," usa"
"1620",1620,"norristown, pennsylvania, usa",12,-75.3399048,40.121497,"norristown"," pennsylvania"," usa"
"1621",1621,"northbrook, illinois, usa",12,-87.8289548,42.1275267,"northbrook"," illinois"," usa"
"1622",1622,"oberlin, ohio, usa",12,-82.2173786,41.2939386,"oberlin"," ohio"," usa"
"1623",1623,"oil city, pennsylvania, usa",12,-79.7064413,41.4339484,"oil city"," pennsylvania"," usa"
"1624",1624,"orangeville, ontario, canada",12,-80.0943113,43.9199788,"orangeville"," ontario"," canada"
"1625",1625,"orillia, ontario, canada",12,-79.4196783,44.6082465,"orillia"," ontario"," canada"
"1626",1626,"palm desert, california, usa",12,-116.3744556,33.7222445,"palm desert"," california"," usa"
"1627",1627,"park city, utah, usa",12,-111.4979729,40.6460622,"park city"," utah"," usa"
"1628",1628,"perkasie, pennsylvania, usa",12,-75.292676,40.372048,"perkasie"," pennsylvania"," usa"
"1629",1629,"pickering, ontario, canada",12,-79.0867579,43.8384117,"pickering"," ontario"," canada"
"1630",1630,"pickerington, ohio, usa",12,-82.7535049,39.8842304,"pickerington"," ohio"," usa"
"1631",1631,"pistoia, toscana, italy",12,10.9078587,43.9303475,"pistoia"," toscana"," italy"
"1632",1632,"poole, england, united kingdom",12,-1.987248,50.71505,"poole"," england"," united kingdom"
"1633",1633,"redford, michigan, usa",12,-83.2973732,42.3944486,"redford"," michigan"," usa"
"1634",1634,"reutlingen, baden-wuerttemberg, germany",12,9.2038043,48.5069389,"reutlingen"," baden-wuerttemberg"," germany"
"1635",1635,"ridgefield, connecticut, usa",12,-73.4975412,41.2840635,"ridgefield"," connecticut"," usa"
"1636",1636,"rijeka, n/a, croatia",12,14.442176,45.3270631,"rijeka"," n/a"," croatia"
"1637",1637,"rimini, emilia romagna, italy",12,12.5695158,44.0678288,"rimini"," emilia romagna"," italy"
"1638",1638,"roma, italy, italy",12,12.4963655,41.9027835,"roma"," italy"," italy"
"1639",1639,"sabadell, barcelona, spain",12,2.1086131,41.5462745,"sabadell"," barcelona"," spain"
"1640",1640,"salerno, campania, italy",12,14.7680961,40.6824408,"salerno"," campania"," italy"
"1641",1641,"santiago, santiago, chile",12,-70.6504492,-33.4378305,"santiago"," santiago"," chile"
"1642",1642,"scranton, pennsylvania, usa",12,-75.6624122,41.408969,"scranton"," pennsylvania"," usa"
"1643",1643,"sedona, arizona, usa",12,-111.7609896,34.8697395,"sedona"," arizona"," usa"
"1644",1644,"severna park, maryland, usa",12,-76.5452409,39.070388,"severna park"," maryland"," usa"
"1645",1645,"sevilla, n/a, spain",12,-5.9844589,37.3890924,"sevilla"," n/a"," spain"
"1646",1646,"shah alam, selangor, malaysia",12,101.518461,3.073281,"shah alam"," selangor"," malaysia"
"1647",1647,"south milwaukee, wisconsin, usa",12,-87.8606367,42.9105722,"south milwaukee"," wisconsin"," usa"
"1648",1648,"sparta, new jersey, usa",12,-74.6363588,41.0334562,"sparta"," new jersey"," usa"
"1649",1649,"stillwater, minnesota, usa",12,-92.8088443,45.056004,"stillwater"," minnesota"," usa"
"1650",1650,"stone mountain, georgia, usa",12,-84.170196,33.8081608,"stone mountain"," georgia"," usa"
"1651",1651,"suffern, new york, usa",12,-74.1495889,41.1148179,"suffern"," new york"," usa"
"1652",1652,"surprise, arizona, usa",12,-112.3679279,33.6292337,"surprise"," arizona"," usa"
"1653",1653,"sylmar, california, usa",12,-118.4571974,34.3058279,"sylmar"," california"," usa"
"1654",1654,"taipei, taiwan, taiwan",12,121.5654177,25.0329694,"taipei"," taiwan"," taiwan"
"1655",1655,"tarragona, catalunya, spain",12,1.2444909,41.1188827,"tarragona"," catalunya"," spain"
"1656",1656,"taunton, england, united kingdom",12,-3.106849,51.015344,"taunton"," england"," united kingdom"
"1657",1657,"the dalles, oregon, usa",12,-121.1786823,45.5945645,"the dalles"," oregon"," usa"
"1658",1658,"toms river, new jersey, usa",12,-74.1979458,39.9537358,"toms river"," new jersey"," usa"
"1659",1659,"trenton, new jersey, usa",12,-74.7429384,40.2170534,"trenton"," new jersey"," usa"
"1660",1660,"trenton, ontario, canada",12,-77.576313,44.1011263,"trenton"," ontario"," canada"
"1661",1661,"tucker, georgia, usa",12,-84.2171424,33.8545479,"tucker"," georgia"," usa"
"1662",1662,"tustin, california, usa",12,-117.826166,33.7458511,"tustin"," california"," usa"
"1663",1663,"upper darby, pennsylvania, usa",12,-75.3076883,39.957902,"upper darby"," pennsylvania"," usa"
"1664",1664,"vineland, new jersey, usa",12,-75.0259637,39.4863773,"vineland"," new jersey"," usa"
"1665",1665,"voorhees, new jersey, usa",12,-74.961517,39.8519447,"voorhees"," new jersey"," usa"
"1666",1666,"westminster, california, usa",12,-117.9939921,33.7513419,"westminster"," california"," usa"
"1667",1667,"westport, connecticut, usa",12,-73.3579049,41.1414717,"westport"," connecticut"," usa"
"1668",1668,"wilkes-barre, pennsylvania, usa",12,-75.8813075,41.2459149,"wilkes-barre"," pennsylvania"," usa"
"1669",1669,"williams lake, british columbia, canada",12,-122.1416885,52.1416736,"williams lake"," british columbia"," canada"
"1670",1670,"williamsville, new york, usa",12,-78.7378091,42.963947,"williamsville"," new york"," usa"
"1671",1671,"woodside, new york, usa",12,-73.9036487,40.7512123,"woodside"," new york"," usa"
"1672",1672,"worcester, england, united kingdom",12,-2.221575,52.193636,"worcester"," england"," united kingdom"
"1673",1673,"wyoming, michigan, usa",12,-85.7053085,42.9133602,"wyoming"," michigan"," usa"
"1674",1674,"yonkers, new york, usa",12,-73.8987469,40.9312099,"yonkers"," new york"," usa"
"1675",1675,"zanesville, ohio, usa",12,-82.0131924,39.9403453,"zanesville"," ohio"," usa"
"1676",1676,"århus, n/a, denmark",11,-0.1277583,51.5073509,"århus"," n/a"," denmark"
"1677",1677,"a coruña, galicia, spain",11,-0.1277583,51.5073509,"a coruña"," galicia"," spain"
"1678",1678,"alamogordo, new mexico, usa",11,-105.960265,32.8995325,"alamogordo"," new mexico"," usa"
"1679",1679,"alcalá de henares, madrid, spain",11,-0.1277583,51.5073509,"alcalá de henares"," madrid"," spain"
"1680",1680,"alhambra, california, usa",11,-118.1270146,34.095287,"alhambra"," california"," usa"
"1681",1681,"altadena, california, usa",11,-118.1313188,34.190162,"altadena"," california"," usa"
"1682",1682,"antwerpen, antwerpen, belgium",11,4.4024643,51.2194475,"antwerpen"," antwerpen"," belgium"
"1683",1683,"arlington, washington, usa",11,-122.1251418,48.1987118,"arlington"," washington"," usa"
"1684",1684,"aveiro, n/a, portugal",11,-8.5721016,40.7209023,"aveiro"," n/a"," portugal"
"1685",1685,"bainbridge island, washington, usa",11,-122.5210008,47.6248791,"bainbridge island"," washington"," usa"
"1686",1686,"barrington, illinois, usa",11,-88.1361888,42.1539141,"barrington"," illinois"," usa"
"1687",1687,"basel, n/a, switzerland",11,7.5885761,47.5595986,"basel"," n/a"," switzerland"
"1688",1688,"bayonne, new jersey, usa",11,-74.1143091,40.6687141,"bayonne"," new jersey"," usa"
"1689",1689,"baytown, texas, usa",11,-94.9774274,29.7355047,"baytown"," texas"," usa"
"1690",1690,"bellefonte, pennsylvania, usa",11,-77.7783348,40.9133943,"bellefonte"," pennsylvania"," usa"
"1691",1691,"biddeford, maine, usa",11,-70.4533844,43.4925843,"biddeford"," maine"," usa"
"1692",1692,"bloomfield hills, michigan, usa",11,-83.2454883,42.583645,"bloomfield hills"," michigan"," usa"
"1693",1693,"boone, north carolina, usa",11,-81.6745517,36.216795,"boone"," north carolina"," usa"
"1694",1694,"bowie, maryland, usa",11,-76.7791365,39.0067768,"bowie"," maryland"," usa"
"1695",1695,"braga, minho, portugal",11,-8.1416198,41.6343218,"braga"," minho"," portugal"
"1696",1696,"brest, bretagne, france",11,-4.486076,48.390394,"brest"," bretagne"," france"
"1697",1697,"bryan, texas, usa",11,-96.3699632,30.6743643,"bryan"," texas"," usa"
"1698",1698,"bundaberg, queensland, australia",11,152.3509714,-24.8669736,"bundaberg"," queensland"," australia"
"1699",1699,"burlington, massachusetts, usa",11,-71.1956205,42.5047161,"burlington"," massachusetts"," usa"
"1700",1700,"bury st edmunds, england, united kingdom",11,0.7104932,52.2429228,"bury st edmunds"," england"," united kingdom"
